{
  "type" : "FeatureCollection",
  "features" : [{"type":"Feature","id":1,"geometry":{"type":"Polygon","coordinates":[[[6.946460099953697,50.330030600032217],[6.9456615001781188,50.329542799660544],[6.9456056001184265,50.32947919960543],[6.9454763000912294,50.329268400316494],[6.9454515003864685,50.329049499934513],[6.9455406996436295,50.328982799916332],[6.9458138003666363,50.328712200207917],[6.9466619995516794,50.329249099966034],[6.9468927997629635,50.329309699882799],[6.947002300315944,50.329409299799408],[6.9471752003752272,50.329684399715347],[6.9470800997668221,50.329752499977928],[6.9466417000544425,50.330020700295108],[6.946460099953697,50.330030600032217]],[[6.9463324996451661,50.329649399899949],[6.9464518001105375,50.329729599641382],[6.9468209996894075,50.329527100195548],[6.9468793998644855,50.329464000163512],[6.9467752997403522,50.329380499910201],[6.9463324996451661,50.329649399899949]]]},"properties":{"OBJECTID":1,"osm_id":"13635306","osm_way_id":" ","name":"B4","type":"multipolygon","aeroway":" ","amenity":"parking","admin_leve":" ","barrier":" ","boundary":" ","building":" ","craft":" ","geological":" ","historic":" ","land_area":" ","landuse":" ","leisure":" ","man_made":" ","military":" ","natural":" ","office":" ","place":" ","shop":" ","sport":" ","tourism":" ","other_tags":"\"parking\"=\u003e\"surface\",\"surface\"=\u003e\"gravel\"","Shape_Length":0.0058144054470343652,"Shape_Area":1.1393762036167544e-06}},{"type":"Feature","id":3,"geometry":{"type":"Polygon","coordinates":[[[6.9350884002095654,50.334260099923711],[6.934513399773607,50.334006299551163],[6.9341488002269784,50.333815399561104],[6.9338974999697029,50.333635000055267],[6.9338143000899208,50.333501199820546],[6.9341575002684976,50.333376800199233],[6.9345342001932408,50.333240300199748],[6.9348576998230556,50.332840199915324],[6.9355257998757907,50.333423600019159],[6.9352753998398953,50.333690099718353],[6.9351486997527445,50.333971299735765],[6.9350884002095654,50.334260099923711]]]},"properties":{"OBJECTID":3,"osm_id":" ","osm_way_id":"32894577","name":"D3","type":" ","aeroway":" ","amenity":"parking","admin_leve":" ","barrier":" ","boundary":" ","building":" ","craft":" ","geological":" ","historic":" ","land_area":" ","landuse":" ","leisure":" ","man_made":" ","military":" ","natural":" ","office":" ","place":" ","shop":" ","sport":" ","tourism":" ","other_tags":"\"access\"=\u003e\"yes\",\"parking\"=\u003e\"surface\"","Shape_Length":0.0046433236652489154,"Shape_Area":1.157116595676373e-06}},{"type":"Feature","id":4,"geometry":{"type":"Polygon","coordinates":[[[6.9392615000182332,50.335778499977835],[6.939429800045275,50.335928399875797],[6.9409812996473192,50.337296300184164],[6.9407200996529355,50.337382799676504],[6.9400666000935871,50.337478199759175],[6.939957700287664,50.337387200059311],[6.939711500085707,50.337243599912256],[6.9394416998745783,50.337210799838601],[6.9390968998021094,50.337203699691031],[6.9386816000758245,50.337225199783177],[6.9380831003548451,50.337257099635508],[6.9373921997902244,50.33681939959564],[6.9390350003650383,50.335900400383252],[6.9392615000182332,50.335778499977835]]]},"properties":{"OBJECTID":4,"osm_id":" ","osm_way_id":"32894580","name":"D7","type":" ","aeroway":" ","amenity":"parking","admin_leve":" ","barrier":" ","boundary":" ","building":" ","craft":" ","geological":" ","historic":" ","land_area":" ","landuse":" ","leisure":" ","man_made":" ","military":" ","natural":" ","office":" ","place":" ","shop":" ","sport":" ","tourism":" ","other_tags":"\"access\"=\u003e\"customers\",\"parking\"=\u003e\"surface\",\"surface\"=\u003e\"grass\"","Shape_Length":0.0082456360130072053,"Shape_Area":2.9961922117385247e-06}},{"type":"Feature","id":5,"geometry":{"type":"Polygon","coordinates":[[[6.9508659002411264,50.337244699783128],[6.9507156999696349,50.337146400286201],[6.9506721997622662,50.337117999695977],[6.9506337996102161,50.337092899617687],[6.9505983995965153,50.337069799631593],[6.9505628997580402,50.337046599820781],[6.9505247999795756,50.337021599567208],[6.9504858998045052,50.336996200014653],[6.9504463997815833,50.336970400263795],[6.9504094996987078,50.336946300231602],[6.9503715995697348,50.336921499627579],[6.9503349000356707,50.336897500319424],[6.9502995000219698,50.336874400333386],[6.9502658995516526,50.336853000065958],[6.9502347002712668,50.336833099867704],[6.9501975996395799,50.336808999835512],[6.950158900013264,50.336783799932448],[6.9500378998292831,50.336704700061887],[6.9501205996859881,50.33665259963783],[6.9501590996627556,50.336628299956146],[6.9501979998378829,50.336603799725651],[6.9502380997085993,50.336578499997813],[6.9502732002480343,50.336556300233099],[6.9503170997543862,50.336528700039537],[6.9503574001739139,50.336503199762888],[6.9504000999846767,50.336476300141214],[6.9504422997723623,50.336449699993693],[6.9504805002749208,50.336425599961501],[6.9505211999934318,50.336399999860134],[6.9505658000716721,50.336371899643495],[6.950596699877849,50.336352299818827],[6.9506366000990738,50.336327199740538],[6.9506803997806514,50.336299600446239],[6.9507244000110973,50.336271900427903],[6.9507644998818137,50.336246599800802],[6.9508793999643785,50.336174100054734],[6.9509888996180962,50.336245300280439],[6.9510250002036287,50.336268699740742],[6.9510606996915953,50.336291899551554],[6.9510964000788249,50.336315100261743],[6.9511319997420173,50.336338200247781],[6.9511662998849033,50.336360499837269],[6.9511974002398915,50.336380700409052],[6.9512283998707858,50.336400900081514],[6.9512589003779794,50.336420599730957],[6.9512934999950744,50.3364430998692],[6.951333699690565,50.336469199993644],[6.9513746997826047,50.336495899965882],[6.951415600049927,50.336522400288572],[6.951459700105147,50.336551100353063],[6.9515068002986595,50.336581699785654],[6.9515489002615709,50.336608999605687],[6.9515837004274772,50.336631599568705],[6.9516224998785106,50.336656800371088],[6.9516618002519408,50.336682399573135],[6.9516696000720231,50.336741500320045],[6.9515914004228421,50.336789499835618],[6.9515526998972064,50.336813800416621],[6.9515151001418189,50.336837299701699],[6.9514809996484814,50.336858699969071],[6.9514472004279924,50.336879799862913],[6.9514127995611261,50.336901399779833],[6.951373300437524,50.33692609965982],[6.9513292003823608,50.336953699853439],[6.9513012998151567,50.336971199761138],[6.9512828996861344,50.336982700291458],[6.9512339999491815,50.337013299724049],[6.9511896004197524,50.337041999788539],[6.9511501003968874,50.337066699668526],[6.951108700106488,50.337092600143421],[6.9510726004202184,50.337115200106439],[6.9510384999268808,50.337136600373867],[6.9509968001622724,50.337162699598935],[6.9509554996965903,50.337188600073887],[6.9508659002411264,50.337244699783128]]]},"properties":{"OBJECTID":5,"osm_id":" ","osm_way_id":"32894628","name":"Historisches Fahrerlager","type":" ","aeroway":" ","amenity":"parking","admin_leve":" ","barrier":" ","boundary":" ","building":" ","craft":" ","geological":" ","historic":" ","land_area":" ","landuse":" ","leisure":" ","man_made":" ","military":" ","natural":" ","office":" ","place":" ","shop":" ","sport":" ","tourism":" ","other_tags":"\"access\"=\u003e\"permissive\",\"alt_name\"=\u003e\"Altes Fahrerlager\",\"alt_name:en\"=\u003e\"Historic paddock N端rburgring\",\"parking\"=\u003e\"surface\",\"surface\"=\u003e\"asphalt\",\"wikidata\"=\u003e\"Q106255499\",\"wikimedia_commons\"=\u003e\"Category:Historic paddock N端rburgring\",\"wikipedia\"=\u003e\"de:Histor","Shape_Length":0.0039242180596723072,"Shape_Area":8.9413794145652157e-07}},{"type":"Feature","id":6,"geometry":{"type":"Polygon","coordinates":[[[6.9512211000737807,50.339396399724137],[6.9511053995945531,50.338442999644769],[6.9511093997789999,50.338333400166334],[6.9511482999541272,50.338234099723991],[6.9513027000596139,50.338046600070584],[6.9522217999960958,50.338315699709824],[6.9530588997484983,50.338623900073003],[6.9529925001038464,50.338694499551593],[6.9529669998272539,50.338708299648374],[6.9514226003727799,50.339416100272842],[6.9512211000737807,50.339396399724137]]]},"properties":{"OBJECTID":6,"osm_id":" ","osm_way_id":"32894879","name":"D10","type":" ","aeroway":" ","amenity":"parking","admin_leve":" ","barrier":" ","boundary":" ","building":" ","craft":" ","geological":" ","historic":" ","land_area":" ","landuse":" ","leisure":" ","man_made":" ","military":" ","natural":" ","office":" ","place":" ","shop":" ","sport":" ","tourism":" ","other_tags":"\"access\"=\u003e\"yes\",\"parking\"=\u003e\"surface\",\"surface\"=\u003e\"grass\"","Shape_Length":0.0052965651546324479,"Shape_Area":1.4978619881075699e-06}},{"type":"Feature","id":7,"geometry":{"type":"Polygon","coordinates":[[[6.9516326001644302,50.337705900007336],[6.9517654003529969,50.337586100418264],[6.9520083000430759,50.337223400239793],[6.9521248000195328,50.337149500249268],[6.9522921998251945,50.337121499857403],[6.9524762002164948,50.337221400147541],[6.952693499805207,50.337380599934818],[6.9529444996889538,50.337583499578898],[6.952985800154579,50.337616900399667],[6.9530742997391712,50.337726499878102],[6.953026099674787,50.337789400260647],[6.95314469956827,50.337859999739237],[6.9530381002281842,50.337956300043288],[6.9527390999295449,50.33794640030618],[6.9525486001378454,50.337967000176945],[6.9524918996814904,50.337961400098607],[6.9522898004340163,50.337941300250861],[6.9520739001903848,50.337886500061984],[6.9516326001644302,50.337705900007336]]]},"properties":{"OBJECTID":7,"osm_id":" ","osm_way_id":"32894883","name":"Marshals Lager","type":" ","aeroway":" ","amenity":"parking","admin_leve":" ","barrier":" ","boundary":" ","building":" ","craft":" ","geological":" ","historic":" ","land_area":" ","landuse":" ","leisure":" ","man_made":" ","military":" ","natural":" ","office":" ","place":" ","shop":" ","sport":" ","tourism":" ","other_tags":" ","Shape_Length":0.0037298888540050015,"Shape_Area":7.6716035764906326e-07}},{"type":"Feature","id":8,"geometry":{"type":"Polygon","coordinates":[[[6.9402792996500011,50.329717299613719],[6.9399188999373109,50.328952900156253],[6.9400234002597472,50.328735300194012],[6.9409594002561903,50.32831560008492],[6.941044799877659,50.328425400112167],[6.9417990001238081,50.329298100427025],[6.9420387000260462,50.329402400200649],[6.9424665003287487,50.32950750037088],[6.9426755998990757,50.329587000439744],[6.9426894998206308,50.329773000023977],[6.9426375999453285,50.329860799936],[6.9425874996134667,50.329945599709731],[6.9425581997011818,50.330023999907723],[6.9418699998007014,50.329889599825208],[6.9413293004069487,50.329827499839325],[6.9413141998904848,50.329752099779625],[6.9413052003747566,50.329707600425479],[6.9411478999556948,50.329709099595334],[6.9402792996500011,50.329717299613719]]]},"properties":{"OBJECTID":8,"osm_id":" ","osm_way_id":"32895195","name":"B2","type":" ","aeroway":" ","amenity":"parking","admin_leve":" ","barrier":" ","boundary":" ","building":" ","craft":" ","geological":" ","historic":" ","land_area":" ","landuse":" ","leisure":" ","man_made":" ","military":" ","natural":" ","office":" ","place":" ","shop":" ","sport":" ","tourism":" ","other_tags":"\"access\"=\u003e\"yes\",\"parking\"=\u003e\"surface\",\"surface\"=\u003e\"gravel\"","Shape_Length":0.0071948551633709027,"Shape_Area":2.3253955187291914e-06}},{"type":"Feature","id":9,"geometry":{"type":"Polygon","coordinates":[[[6.9443859998140738,50.333964999984801],[6.9473913002683503,50.335952599732764],[6.9477200996029751,50.33620320031747],[6.9476269001613673,50.33626089992066],[6.9482180002605674,50.336646500435677],[6.9482013996749288,50.336935000250094],[6.9481864997072194,50.337122800277086],[6.9481610003299465,50.337168699875633],[6.9480334998461899,50.337100599613052],[6.9473550998580436,50.336656400172785],[6.9460120999784749,50.336236399690165],[6.9456026998047946,50.336058299750789],[6.945177000318381,50.335766500323757],[6.9445286997397488,50.335329499956515],[6.9444586002842357,50.335284200205706],[6.9443925001138496,50.335241399670906],[6.9443467003400201,50.335206999703303],[6.9443125000219084,50.335184499565059],[6.9440908000504464,50.335314500164088],[6.942196000445108,50.334794499566556],[6.9410905996514884,50.334482100268758],[6.9402507003096048,50.334244799757755],[6.9402888000881262,50.334195599647273],[6.9408903997721723,50.334189700094612],[6.9415512000279023,50.334045199726233],[6.9419233997451784,50.333890000123461],[6.9427323003554307,50.333353700213138],[6.9436761999966734,50.333995299943183],[6.9437345003469773,50.333957999662005],[6.9437959995857454,50.333918499639083],[6.943998900129202,50.33379250012382],[6.9443859998140738,50.333964999984801]]]},"properties":{"OBJECTID":9,"osm_id":" ","osm_way_id":"32938766","name":"Grand-Prix-Fahrerlager","type":" ","aeroway":" ","amenity":"parking","admin_leve":" ","barrier":" ","boundary":" ","building":" ","craft":" ","geological":" ","historic":" ","land_area":" ","landuse":" ","leisure":" ","man_made":" ","military":" ","natural":" ","office":" ","place":" ","shop":" ","sport":"motor","tourism":" ","other_tags":"\"alt_name\"=\u003e\"Neues Fahrerlager\",\"description\"=\u003e\"Fahrerlager\",\"name:en\"=\u003e\"Grand Prix Paddock\",\"parking\"=\u003e\"surface\",\"surface\"=\u003e\"asphalt\",\"toilets\"=\u003e\"yes\"","Shape_Length":0.018632825511218826,"Shape_Area":7.7620458180389258e-06}},{"type":"Feature","id":10,"geometry":{"type":"Polygon","coordinates":[[[6.9454457995840357,50.330742200292377],[6.9445213001179695,50.330326000344712],[6.9442199004280951,50.330223500114471],[6.9429050996906199,50.330035999561801],[6.9429172000687913,50.330009199764788],[6.9430373998561663,50.329743799936466],[6.943118399994205,50.329728899968813],[6.9433303998781071,50.329689899968969],[6.9439789001062309,50.329601699858642],[6.9445958997810067,50.329476900038969],[6.9449815002960236,50.329504900430891],[6.945305699598407,50.329640000185918],[6.9455148998927712,50.329587499563502],[6.9455462997220252,50.329628200181332],[6.9462557002404424,50.330121200433098],[6.9462700003603004,50.33027320024803],[6.9454457995840357,50.330742200292377]]]},"properties":{"OBJECTID":10,"osm_id":" ","osm_way_id":"32988158","name":"B3","type":" ","aeroway":" ","amenity":"parking","admin_leve":" ","barrier":" ","boundary":" ","building":" ","craft":" ","geological":" ","historic":" ","land_area":" ","landuse":" ","leisure":" ","man_made":" ","military":" ","natural":" ","office":" ","place":" ","shop":" ","sport":" ","tourism":" ","other_tags":"\"access\"=\u003e\"yes\",\"parking\"=\u003e\"surface\",\"surface\"=\u003e\"gravel\"","Shape_Length":0.0075327416579498716,"Shape_Area":2.2912171505820721e-06}},{"type":"Feature","id":11,"geometry":{"type":"Polygon","coordinates":[[[6.9445387002008943,50.331316799630656],[6.9444814997214621,50.331342200082531],[6.9443977998186597,50.331380500409807],[6.9442497003634571,50.33131740037777],[6.9425785999225127,50.330298499975868],[6.9426977996637902,50.330272100377158],[6.9436628999229697,50.330318800372368],[6.9443294000818128,50.33046589978153],[6.9451900998432734,50.330871500319518],[6.9451922995850168,50.330913000434691],[6.9445387002008943,50.331316799630656]]]},"properties":{"OBJECTID":11,"osm_id":" ","osm_way_id":"32988184","name":"B1","type":" ","aeroway":" ","amenity":"parking","admin_leve":" ","barrier":" ","boundary":" ","building":" ","craft":" ","geological":" ","historic":" ","land_area":" ","landuse":" ","leisure":" ","man_made":" ","military":" ","natural":" ","office":" ","place":" ","shop":" ","sport":" ","tourism":" ","other_tags":"\"access\"=\u003e\"yes\",\"fee\"=\u003e\"yes\",\"layer\"=\u003e\"-2\",\"parking\"=\u003e\"surface\",\"surface\"=\u003e\"gravel\",\"wheelchair\"=\u003e\"limited\"","Shape_Length":0.0058050125000412168,"Shape_Area":1.3104745788913924e-06}},{"type":"Feature","id":12,"geometry":{"type":"Polygon","coordinates":[[[6.9351487995774619,50.331291800276404],[6.9347236001141255,50.331367399985595],[6.9342048999362191,50.331344100350009],[6.9335748996619486,50.331043799631686],[6.9329048004162814,50.330614099960826],[6.9329814001715135,50.330548900011763],[6.9333072002671088,50.330271499630044],[6.9334983997314339,50.330347299888047],[6.9338244003758405,50.330270999607023],[6.9340221001398845,50.330204500137597],[6.9340733003425612,50.330187299704164],[6.934195500222188,50.330370499698859],[6.935149699798842,50.330744599683555],[6.935509999686758,50.331006299701016],[6.9355170000096109,50.331109700152581],[6.9353347002362966,50.331229599566427],[6.9351487995774619,50.331291800276404]]]},"properties":{"OBJECTID":12,"osm_id":" ","osm_way_id":"33006852","name":"C8","type":" ","aeroway":" ","amenity":"parking","admin_leve":" ","barrier":" ","boundary":" ","building":" ","craft":" ","geological":" ","historic":" ","land_area":" ","landuse":" ","leisure":" ","man_made":" ","military":" ","natural":" ","office":" ","place":" ","shop":" ","sport":" ","tourism":" ","other_tags":"\"access\"=\u003e\"yes\",\"parking\"=\u003e\"surface\",\"surface\"=\u003e\"grass\"","Shape_Length":0.0059849169025215729,"Shape_Area":1.7397472722468705e-06}},{"type":"Feature","id":14,"geometry":{"type":"Polygon","coordinates":[[[6.9349631003668151,50.325663699919858],[6.9332770001335007,50.324800199669539],[6.9330380997285488,50.324518700177919],[6.9329784000331642,50.324184399690353],[6.93310310002812,50.323794399691849],[6.93338720035905,50.323482799891337],[6.9333619995566664,50.323851100148204],[6.9336537000582439,50.324430699717084],[6.9341680996781179,50.324835400033749],[6.935232100181338,50.325521400192542],[6.9350428999099449,50.325621500132172],[6.9349631003668151,50.325663699919858]]]},"properties":{"OBJECTID":14,"osm_id":" ","osm_way_id":"34262519","name":"RallyCross-Fahrerlager","type":" ","aeroway":" ","amenity":"parking","admin_leve":" ","barrier":" ","boundary":" ","building":" ","craft":" ","geological":" ","historic":" ","land_area":" ","landuse":" ","leisure":" ","man_made":" ","military":" ","natural":" ","office":" ","place":" ","shop":" ","sport":" ","tourism":" ","other_tags":"\"access\"=\u003e\"private\",\"operator\"=\u003e\"N端rburgring\",\"parking\"=\u003e\"surface\",\"surface\"=\u003e\"asphalt\"","Shape_Length":0.0066771073720577464,"Shape_Area":1.1591617837531497e-06}},{"type":"Feature","id":15,"geometry":{"type":"Polygon","coordinates":[[[6.934951599836495,50.328782000189221],[6.9350894002556629,50.327850500400302],[6.9355663997695842,50.327845000146681],[6.9357120000088344,50.328844100175161],[6.934951599836495,50.328782000189221]]]},"properties":{"OBJECTID":15,"osm_id":" ","osm_way_id":"34262526","name":"C5","type":" ","aeroway":" ","amenity":"parking","admin_leve":" ","barrier":" ","boundary":" ","building":" ","craft":" ","geological":" ","historic":" ","land_area":" ","landuse":" ","leisure":" ","man_made":" ","military":" ","natural":" ","office":" ","place":" ","shop":" ","sport":" ","tourism":" ","other_tags":" ","Shape_Length":0.0031912538149054068,"Shape_Area":5.971205351539417e-07}},{"type":"Feature","id":16,"geometry":{"type":"Polygon","coordinates":[[[6.9511633995712714,50.337452900031337],[6.9509695003422394,50.337341500110199],[6.9512674996954047,50.337146799585184],[6.9511501003968874,50.337066699668526],[6.9513012998151567,50.336971199761138],[6.9513469997642687,50.337001800093049],[6.9514816003955957,50.337110199875895],[6.9518076999654568,50.336945200360788],[6.9516730004086753,50.336836799678622],[6.9517994999470147,50.336770200384478],[6.9520027997894545,50.336921899825882],[6.9518457997439214,50.33708619966842],[6.9516862995831161,50.337368700105458],[6.9515535002938691,50.337531300229386],[6.9513817001054008,50.33766759968006],[6.9510825001573266,50.33751240007723],[6.9511633995712714,50.337452900031337]]]},"properties":{"OBJECTID":16,"osm_id":" ","osm_way_id":"34289131","name":"Industrielager","type":" ","aeroway":" ","amenity":"parking","admin_leve":" ","barrier":" ","boundary":" ","building":" ","craft":" ","geological":" ","historic":" ","land_area":" ","landuse":" ","leisure":" ","man_made":" ","military":" ","natural":" ","office":" ","place":" ","shop":" ","sport":" ","tourism":" ","other_tags":"\"description\"=\u003e\"facility area N端rburgring\",\"old_name\"=\u003e\"Zakspeed-Lager\"","Shape_Length":0.0034817440627472672,"Shape_Area":3.7658790272428027e-07}},{"type":"Feature","id":17,"geometry":{"type":"Polygon","coordinates":[[[6.9354641000882111,50.334567099691924],[6.9355457998988186,50.334571300425239],[6.9360798002426236,50.33482910008297],[6.936509200439275,50.334938499911914],[6.9366611004294896,50.335697700388607],[6.9365607001162743,50.335768100217706],[6.9356181998201123,50.33553710035693],[6.9354106003190168,50.334965899556664],[6.9354452997608291,50.334707400226421],[6.9354641000882111,50.334567099691924]]]},"properties":{"OBJECTID":17,"osm_id":" ","osm_way_id":"34289274","name":"D4","type":" ","aeroway":" ","amenity":"parking","admin_leve":" ","barrier":" ","boundary":" ","building":" ","craft":" ","geological":" ","historic":" ","land_area":" ","landuse":" ","leisure":" ","man_made":" ","military":" ","natural":" ","office":" ","place":" ","shop":" ","sport":" ","tourism":" ","other_tags":"\"access\"=\u003e\"yes\",\"parking\"=\u003e\"surface\",\"surface\"=\u003e\"grass\"","Shape_Length":0.0039952926957739932,"Shape_Area":9.5022496197255809e-07}},{"type":"Feature","id":18,"geometry":{"type":"Polygon","coordinates":[[[6.9474711996361975,50.338295000014284],[6.947554199866488,50.338208999645644],[6.9481153003808345,50.33838039963581],[6.9483809996834225,50.338510300410064],[6.9487302001386979,50.338835399933828],[6.9483869001354037,50.339005500403573],[6.9477722998518061,50.338788500289127],[6.947659800059796,50.338604099699523],[6.9474711996361975,50.338295000014284]]]},"properties":{"OBJECTID":18,"osm_id":" ","osm_way_id":"34435530","name":"D8","type":" ","aeroway":" ","amenity":"parking","admin_leve":" ","barrier":" ","boundary":" ","building":" ","craft":" ","geological":" ","historic":" ","land_area":" ","landuse":" ","leisure":" ","man_made":" ","military":" ","natural":" ","office":" ","place":" ","shop":" ","sport":" ","tourism":" ","other_tags":"\"parking\"=\u003e\"surface\"","Shape_Length":0.0030920947136228393,"Shape_Area":4.9084517039221393e-07}},{"type":"Feature","id":19,"geometry":{"type":"Polygon","coordinates":[[[6.9320737000412578,50.325946900029464],[6.9327864001722901,50.325999499577279],[6.9331811000278094,50.326085499945918],[6.9335543996159004,50.326183300319087],[6.933917499992674,50.326265000129695],[6.9339329998081212,50.326300800341699],[6.9339462998818817,50.326331200124855],[6.9338405998638564,50.326466999552451],[6.9337502998365039,50.326507600345508],[6.9335295000864221,50.326565499598189],[6.9333832999993206,50.32664990007288],[6.9333154002855508,50.326703899865151],[6.9332606000966734,50.326749699638981],[6.9331673997557459,50.326760200123204],[6.9330731004432664,50.326719200031107],[6.9322528000267312,50.326229199917691],[6.9320685999859393,50.326004800181465],[6.9320737000412578,50.325946900029464]]]},"properties":{"OBJECTID":19,"osm_id":" ","osm_way_id":"34437376","name":"C4","type":" ","aeroway":" ","amenity":"parking","admin_leve":" ","barrier":" ","boundary":" ","building":" ","craft":" ","geological":" ","historic":" ","land_area":" ","landuse":" ","leisure":" ","man_made":" ","military":" ","natural":" ","office":" ","place":" ","shop":" ","sport":" ","tourism":" ","other_tags":"\"access\"=\u003e\"yes\",\"parking\"=\u003e\"surface\"","Shape_Length":0.0042757819649859481,"Shape_Area":7.9224739751515485e-07}},{"type":"Feature","id":20,"geometry":{"type":"Polygon","coordinates":[[[6.9456918001365011,50.331066399594704],[6.946274999691525,50.330668999974421],[6.9471625999740354,50.330845199646319],[6.9471333000618074,50.331063299631637],[6.946552599722736,50.330766400149287],[6.9454337001052409,50.331421999625661],[6.9452941999674067,50.331346599565961],[6.9456918001365011,50.331066399594704]]]},"properties":{"OBJECTID":20,"osm_id":" ","osm_way_id":"46194382","name":" ","type":" ","aeroway":" ","amenity":"parking","admin_leve":" ","barrier":" ","boundary":" ","building":" ","craft":" ","geological":" ","historic":" ","land_area":" ","landuse":" ","leisure":" ","man_made":" ","military":" ","natural":" ","office":" ","place":" ","shop":" ","sport":" ","tourism":" ","other_tags":"\"fee\"=\u003e\"yes\",\"wheelchair\"=\u003e\"yes\"","Shape_Length":0.0044247111534961364,"Shape_Area":3.188743212569944e-07}},{"type":"Feature","id":21,"geometry":{"type":"Polygon","coordinates":[[[6.9483577000478931,50.333994999569654],[6.9481560999241196,50.333664399792269],[6.9480902003025449,50.333452700281953],[6.9482105997394115,50.333400199659536],[6.9483965003982462,50.333413599558014],[6.9485850999224681,50.333436700443428],[6.9487964001338014,50.333473700351021],[6.9489702004144647,50.333562199935614],[6.9491075997360099,50.333686800105795],[6.949175699998591,50.333853299690077],[6.9491719003629555,50.334152399813433],[6.9496421999276095,50.334435300448831],[6.9495483997388874,50.334519200001125],[6.9493722998917633,50.334680700254182],[6.9486933998805398,50.334278300403298],[6.9483577000478931,50.333994999569654]]]},"properties":{"OBJECTID":21,"osm_id":" ","osm_way_id":"46565301","name":"A7","type":" ","aeroway":" ","amenity":"parking","admin_leve":" ","barrier":" ","boundary":" ","building":" ","craft":" ","geological":" ","historic":" ","land_area":" ","landuse":" ","leisure":" ","man_made":" ","military":" ","natural":" ","office":" ","place":" ","shop":" ","sport":" ","tourism":" ","other_tags":"\"access\"=\u003e\"yes\",\"parking\"=\u003e\"surface\",\"surface\"=\u003e\"gravel\"","Shape_Length":0.0043328055687304303,"Shape_Area":8.7409179816139813e-07}},{"type":"Feature","id":22,"geometry":{"type":"Polygon","coordinates":[[[6.9479888997679495,50.333380500010094],[6.947661800151991,50.332801500289065],[6.9482947996653479,50.332443699617102],[6.9483783997433761,50.33252380043308],[6.9486969998666837,50.332829200307401],[6.9484181003151093,50.333250399586348],[6.9479888997679495,50.333380500010094]]]},"properties":{"OBJECTID":22,"osm_id":" ","osm_way_id":"46565306","name":"A8","type":" ","aeroway":" ","amenity":"parking","admin_leve":" ","barrier":" ","boundary":" ","building":" ","craft":" ","geological":" ","historic":" ","land_area":" ","landuse":" ","leisure":" ","man_made":" ","military":" ","natural":" ","office":" ","place":" ","shop":" ","sport":" ","tourism":" ","other_tags":"\"access\"=\u003e\"yes\",\"parking\"=\u003e\"surface\",\"surface\"=\u003e\"gravel\"","Shape_Length":0.0029028980444691949,"Shape_Area":5.6137713346819766e-07}},{"type":"Feature","id":23,"geometry":{"type":"Polygon","coordinates":[[[6.9498879001065461,50.33584670006519],[6.9497397997520238,50.335750600310007],[6.9495133000987721,50.3356035998263],[6.9494307998915588,50.335550100057105],[6.9492845998045141,50.335298500325564],[6.9494450001866426,50.335222799892335],[6.9501794998840865,50.335691600287191],[6.9498879001065461,50.33584670006519]]]},"properties":{"OBJECTID":23,"osm_id":" ","osm_way_id":"114676988","name":"Parkplatz Dorint / Broadcast Compound","type":" ","aeroway":" ","amenity":"parking","admin_leve":" ","barrier":" ","boundary":" ","building":" ","craft":" ","geological":" ","historic":" ","land_area":" ","landuse":" ","leisure":" ","man_made":" ","military":" ","natural":" ","office":" ","place":" ","shop":" ","sport":" ","tourism":" ","other_tags":"\"capacity\"=\u003e\"0\",\"fee\"=\u003e\"yes\",\"int_name\"=\u003e\"Car parking Dorint Hotel\",\"surface\"=\u003e\"asphalt\"","Shape_Length":0.0022148954178321609,"Shape_Area":2.2792858679617551e-07}},{"type":"Feature","id":24,"geometry":{"type":"Polygon","coordinates":[[[6.9313274003392848,50.322675800447882],[6.9312819000397212,50.323064900225006],[6.9312331999522598,50.323214300099949],[6.9308017996633566,50.323359000117819],[6.930461599623186,50.323543899831179],[6.930172599785692,50.323564899900248],[6.9301253997674621,50.323682999770654],[6.9306374998208184,50.324395600076912],[6.9301779003898218,50.324421499652544],[6.9298132999438735,50.324102400405536],[6.9290512998776421,50.323839300143618],[6.9290122000530232,50.323459500255808],[6.9286947996253616,50.323399000163761],[6.9283881002306771,50.323645300190492],[6.9283875003828825,50.323988199995483],[6.9280740003148935,50.323816499631789],[6.9281084002824969,50.323670300444064],[6.9283624003045929,50.323293800168813],[6.9286308002712644,50.323152499588218],[6.9295947997602525,50.322893799709163],[6.9304478004257248,50.322675800447882],[6.9308354999583912,50.322666899857609],[6.9313274003392848,50.322675800447882]]]},"properties":{"OBJECTID":24,"osm_id":" ","osm_way_id":"116805292","name":"C3","type":" ","aeroway":" ","amenity":"parking","admin_leve":" ","barrier":" ","boundary":" ","building":" ","craft":" ","geological":" ","historic":" ","land_area":" ","landuse":" ","leisure":" ","man_made":" ","military":" ","natural":" ","office":" ","place":" ","shop":" ","sport":" ","tourism":" ","other_tags":"\"access\"=\u003e\"yes\",\"parking\"=\u003e\"surface\",\"surface\"=\u003e\"grass\"","Shape_Length":0.0099011730278437422,"Shape_Area":2.6304323716572722e-06}},{"type":"Feature","id":25,"geometry":{"type":"Polygon","coordinates":[[[6.9449695995674006,50.327959500030943],[6.9449278998027921,50.327966100155436],[6.9444180003904421,50.328059900344158],[6.9443217000864479,50.327509099765223],[6.9442307003865835,50.326942300247026],[6.9448820002041884,50.327002099767128],[6.9451378995944424,50.326998399956267],[6.9453436995521542,50.326943800316201],[6.9454086000268944,50.326927199730562],[6.9454457995840357,50.327128799854279],[6.945402800299064,50.327309700282512],[6.9452552997922794,50.327474000125051],[6.9451421003277005,50.327601999732565],[6.9450336996455917,50.327738800105578],[6.9449695995674006,50.327959500030943]]]},"properties":{"OBJECTID":25,"osm_id":" ","osm_way_id":"116944244","name":"B4a","type":" ","aeroway":" ","amenity":"parking","admin_leve":" ","barrier":" ","boundary":" ","building":" ","craft":" ","geological":" ","historic":" ","land_area":" ","landuse":" ","leisure":" ","man_made":" ","military":" ","natural":" ","office":" ","place":" ","shop":" ","sport":" ","tourism":" ","other_tags":"\"parking\"=\u003e\"surface\",\"surface\"=\u003e\"gravel\"","Shape_Length":0.0040707395296565828,"Shape_Area":9.3512667471141274e-07}},{"type":"Feature","id":26,"geometry":{"type":"Polygon","coordinates":[[[6.9350500000575153,50.322199300057719],[6.9353682998072372,50.322039200049119],[6.9359993999523795,50.322242599716276],[6.9365602999179714,50.322601299710243],[6.9369358001471255,50.322510899858173],[6.9370447997777092,50.322701500374023],[6.9369215998519849,50.322783100359857],[6.9370922003448072,50.323460799776115],[6.9374002001591748,50.323657399669287],[6.9373386001963127,50.323841999908439],[6.938229400266664,50.32431690040471],[6.9377177004116106,50.324737400011031],[6.9372437999614363,50.324280600169629],[6.9367273004246499,50.32366349977076],[6.9360260999246179,50.32287090027188],[6.9355380000786795,50.322438300287388],[6.9350500000575153,50.322199300057719]]]},"properties":{"OBJECTID":26,"osm_id":" ","osm_way_id":"116947676","name":"B7","type":" ","aeroway":" ","amenity":"parking","admin_leve":" ","barrier":" ","boundary":" ","building":" ","craft":" ","geological":" ","historic":" ","land_area":" ","landuse":" ","leisure":" ","man_made":" ","military":" ","natural":" ","office":" ","place":" ","shop":" ","sport":" ","tourism":" ","other_tags":"\"access\"=\u003e\"yes\",\"parking\"=\u003e\"surface\",\"surface\"=\u003e\"gravel\"","Shape_Length":0.0090861527616310344,"Shape_Area":1.901176461949853e-06}},{"type":"Feature","id":27,"geometry":{"type":"Polygon","coordinates":[[[6.9270094997886531,50.323096600427846],[6.9269606998764743,50.321898500215639],[6.9265239000579868,50.321255600065967],[6.9265239000579868,50.321000400348225],[6.9262351996947586,50.320787600067717],[6.9259759997926267,50.320570199754968],[6.9258349995856179,50.320322799857365],[6.9264863003025425,50.319119599589897],[6.9269903001622879,50.319350600349992],[6.9278787997668587,50.319719299905842],[6.9285894998056392,50.319776000362197],[6.929848199934554,50.319794899614976],[6.9300481003396044,50.320116400051859],[6.9301073000119118,50.320452000059788],[6.9300184002290166,50.320849100205862],[6.9296926999581956,50.322739899626697],[6.9293520997196651,50.322848699607846],[6.9285081003685605,50.323047199768496],[6.9282118996595159,50.323255200367271],[6.9280490998860955,50.323184299615775],[6.9277898999839636,50.322867599760002],[6.9273383000225977,50.322943200368456],[6.9271613997788108,50.323120800284755],[6.9270094997886531,50.323096600427846]]]},"properties":{"OBJECTID":27,"osm_id":" ","osm_way_id":"116947684","name":"C1","type":" ","aeroway":" ","amenity":"parking","admin_leve":" ","barrier":" ","boundary":" ","building":" ","craft":" ","geological":" ","historic":" ","land_area":" ","landuse":" ","leisure":" ","man_made":" ","military":" ","natural":" ","office":" ","place":" ","shop":" ","sport":" ","tourism":" ","other_tags":"\"access\"=\u003e\"yes\",\"parking\"=\u003e\"surface\",\"surface\"=\u003e\"grass\"","Shape_Length":0.01415024498393643,"Shape_Area":1.1374139647988045e-05}},{"type":"Feature","id":28,"geometry":{"type":"Polygon","coordinates":[[[6.9298365995794597,50.322676400295677],[6.930088300035095,50.321234699821616],[6.9302364003896173,50.320407399981605],[6.9302068001038037,50.320071799973618],[6.9300661002703805,50.319849599979136],[6.9307102001156977,50.320019800273599],[6.9320407003181117,50.320535899612139],[6.9316088998309056,50.321739900276214],[6.933977000038567,50.322029400136785],[6.934065100324176,50.322106599739868],[6.9337308996613274,50.322161200279197],[6.9331831001200044,50.322340800287748],[6.9327536000986356,50.322647999705453],[6.9324723002565065,50.322591300148417],[6.9304066996095344,50.322577099853333],[6.9298365995794597,50.322676400295677]]]},"properties":{"OBJECTID":28,"osm_id":" ","osm_way_id":"116947685","name":"C2","type":" ","aeroway":" ","amenity":"parking","admin_leve":" ","barrier":" ","boundary":" ","building":" ","craft":" ","geological":" ","historic":" ","land_area":" ","landuse":" ","leisure":" ","man_made":" ","military":" ","natural":" ","office":" ","place":" ","shop":" ","sport":" ","tourism":" ","other_tags":"\"access\"=\u003e\"yes\",\"parking\"=\u003e\"surface\",\"surface\"=\u003e\"grass\"","Shape_Length":0.01315358529096264,"Shape_Area":5.4961813250851614e-06}},{"type":"Feature","id":47,"geometry":{"type":"Polygon","coordinates":[[[6.9158056998732036,50.318975500319141],[6.9157882997902789,50.319225500156733],[6.9150468995948131,50.319040600443429],[6.9151380998434888,50.318835099959927],[6.9158056998732036,50.318975500319141]]]},"properties":{"OBJECTID":47,"osm_id":" ","osm_way_id":"123398862","name":" ","type":" ","aeroway":" ","amenity":"parking","admin_leve":" ","barrier":" ","boundary":" ","building":" ","craft":" ","geological":" ","historic":" ","land_area":" ","landuse":" ","leisure":" ","man_made":" ","military":" ","natural":" ","office":" ","place":" ","shop":" ","sport":" ","tourism":" ","other_tags":"\"parking\"=\u003e\"surface\"","Shape_Length":0.0019217458672907179,"Shape_Area":1.6928193768455258e-07}},{"type":"Feature","id":48,"geometry":{"type":"Polygon","coordinates":[[[6.9508347000614208,50.335531000255514],[6.9507266995775581,50.335514299845102],[6.9506167997255943,50.335497200135705],[6.9493722998917633,50.334680700254182],[6.9495483997388874,50.334519200001125],[6.9496148002828591,50.334557799802667],[6.9504693001181295,50.33401350042277],[6.9508776004209949,50.333799000423596],[6.9512124998570357,50.333730900160958],[6.951347099589043,50.333703600340925],[6.9514710000866557,50.333816899630278],[6.9516502997216207,50.334237400135976],[6.9520151996417781,50.334282600062011],[6.9522197999039008,50.334374300333764],[6.9520664996692858,50.334956200368424],[6.9520298001352216,50.335009600312844],[6.9519753003199298,50.335090300077354],[6.9518548999836867,50.335161100104756],[6.9516841996661469,50.335198500210652],[6.9514676995747209,50.335205800007714],[6.9513087003363125,50.335268800215033],[6.9508347000614208,50.335531000255514]]]},"properties":{"OBJECTID":48,"osm_id":" ","osm_way_id":"159310021","name":"A5 + A6","type":" ","aeroway":" ","amenity":"parking","admin_leve":" ","barrier":" ","boundary":" ","building":" ","craft":" ","geological":" ","historic":" ","land_area":" ","landuse":" ","leisure":" ","man_made":" ","military":" ","natural":" ","office":" ","place":" ","shop":" ","sport":" ","tourism":" ","other_tags":"\"access\"=\u003e\"yes\",\"parking\"=\u003e\"surface\",\"surface\"=\u003e\"gravel\"","Shape_Length":0.00720274307941239,"Shape_Area":2.970199921500668e-06}},{"type":"Feature","id":49,"geometry":{"type":"Polygon","coordinates":[[[6.9355257998757907,50.333423600019159],[6.9373325000948398,50.3343302002786],[6.9375029998636251,50.334474799572376],[6.9374858003294548,50.334553599968729],[6.9374362000206702,50.334659100337262],[6.9371563004229984,50.334719700254027],[6.9367040997144613,50.334804199654172],[6.9363781997941487,50.334787500143079],[6.9361772004174895,50.334751100083281],[6.9359942000723436,50.33468649998207],[6.9355938003136544,50.334512800425443],[6.9350884002095654,50.334260099923711],[6.9351486997527445,50.333971299735765],[6.9352753998398953,50.333690099718353],[6.9355257998757907,50.333423600019159]]]},"properties":{"OBJECTID":49,"osm_id":" ","osm_way_id":"222638262","name":"D5","type":" ","aeroway":" ","amenity":"parking","admin_leve":" ","barrier":" ","boundary":" ","building":" ","craft":" ","geological":" ","historic":" ","land_area":" ","landuse":" ","leisure":" ","man_made":" ","military":" ","natural":" ","office":" ","place":" ","shop":" ","sport":" ","tourism":" ","other_tags":"\"access\"=\u003e\"yes\",\"parking\"=\u003e\"surface\",\"surface\"=\u003e\"grass\"","Shape_Length":0.0058839206925791147,"Shape_Area":1.8366019019877875e-06}},{"type":"Feature","id":51,"geometry":{"type":"Polygon","coordinates":[[[6.9373921997902244,50.33681939959564],[6.9365022001164789,50.336235600192822],[6.9366235995994998,50.336024800004566],[6.9369897999393402,50.335853400014457],[6.9377773002822209,50.33563279991381],[6.9379514998618674,50.335457200089763],[6.938041500414954,50.334858200345707],[6.9388144002643912,50.335390400246808],[6.9392615000182332,50.335778499977835],[6.9390350003650383,50.335900400383252],[6.9373921997902244,50.33681939959564]]]},"properties":{"OBJECTID":51,"osm_id":" ","osm_way_id":"222642381","name":"D6","type":" ","aeroway":" ","amenity":"parking","admin_leve":" ","barrier":" ","boundary":" ","building":" ","craft":" ","geological":" ","historic":" ","land_area":" ","landuse":" ","leisure":" ","man_made":" ","military":" ","natural":" ","office":" ","place":" ","shop":" ","sport":" ","tourism":" ","other_tags":"\"access\"=\u003e\"customers\",\"parking\"=\u003e\"surface\",\"surface\"=\u003e\"grass\"","Shape_Length":0.0070529137754412764,"Shape_Area":2.2508470801115443e-06}},{"type":"Feature","id":53,"geometry":{"type":"Polygon","coordinates":[[[6.9426052998947512,50.33122289961716],[6.9421996004312518,50.330957899987141],[6.9422500002373795,50.330922800347025],[6.9422305002374287,50.330912600236388],[6.9422727000251143,50.330882300278006],[6.9423050999004658,50.330859099567817],[6.9424174000430412,50.330810100006147],[6.9426353003788677,50.330821099614127],[6.942694900249478,50.33085989996448],[6.9427431003138622,50.330827599913846],[6.9429825996672889,50.330990100213],[6.9426052998947512,50.33122289961716]]]},"properties":{"OBJECTID":53,"osm_id":" ","osm_way_id":"367658644","name":"Hotel Lindner","type":" ","aeroway":" ","amenity":"parking","admin_leve":" ","barrier":" ","boundary":" ","building":" ","craft":" ","geological":" ","historic":" ","land_area":" ","landuse":" ","leisure":" ","man_made":" ","military":" ","natural":" ","office":" ","place":" ","shop":" ","sport":" ","tourism":" ","other_tags":"\"fee\"=\u003e\"yes\",\"parking\"=\u003e\"surface\"","Shape_Length":0.0018624099835340387,"Shape_Area":1.8439906101755009e-07}},{"type":"Feature","id":54,"geometry":{"type":"Polygon","coordinates":[[[6.9471832996695753,50.333158800038632],[6.9467726998003059,50.332910400094931],[6.9466816002756673,50.332824799924651],[6.946564100253056,50.332696900141855],[6.9464896004147931,50.332600800386672],[6.9463405998388339,50.332498200331713],[6.9466104000499627,50.332320700240189],[6.9468372999015173,50.332445400235088],[6.9470558000851383,50.332568000313017],[6.947156800246205,50.332654700354169],[6.947236300315069,50.332739199754315],[6.9472941995676933,50.332841699984499],[6.9473802997610505,50.332973799601234],[6.9474283001759431,50.333020299946952],[6.9471832996695753,50.333158800038632]]]},"properties":{"OBJECTID":54,"osm_id":" ","osm_way_id":"368634360","name":"A10","type":" ","aeroway":" ","amenity":"parking","admin_leve":" ","barrier":" ","boundary":" ","building":" ","craft":" ","geological":" ","historic":" ","land_area":" ","landuse":" ","leisure":" ","man_made":" ","military":" ","natural":" ","office":" ","place":" ","shop":" ","sport":" ","tourism":" ","other_tags":"\"access\"=\u003e\"yes\",\"parking\"=\u003e\"surface\",\"surface\"=\u003e\"asphalt\"","Shape_Length":0.002786287773051602,"Shape_Area":3.9336523621698936e-07}},{"type":"Feature","id":59,"geometry":{"type":"Polygon","coordinates":[[[6.9608259998200879,50.34638759980794],[6.9606592996869949,50.346427099830862],[6.9605579002269451,50.346369500052447],[6.9605352004392103,50.346290199633074],[6.9603840001215644,50.34630780026481],[6.9603589000432748,50.346183899767198],[6.9604944998213796,50.346165999661196],[6.9606401998853471,50.346248099670106],[6.9608259998200879,50.34638759980794]]]},"properties":{"OBJECTID":59,"osm_id":" ","osm_way_id":"846956206","name":" ","type":" ","aeroway":" ","amenity":"parking","admin_leve":" ","barrier":" ","boundary":" ","building":" ","craft":" ","geological":" ","historic":" ","land_area":" ","landuse":" ","leisure":" ","man_made":" ","military":" ","natural":" ","office":" ","place":" ","shop":" ","sport":" ","tourism":" ","other_tags":"\"access\"=\u003e\"customers\",\"parking\"=\u003e\"surface\"","Shape_Length":0.0011854126243770692,"Shape_Area":5.4213178729382573e-08}},{"type":"Feature","id":62,"geometry":{"type":"Polygon","coordinates":[[[6.9489026001749039,50.335234800445733],[6.9489611999994167,50.33519480039979],[6.9490058000776571,50.335221399647935],[6.9489472002531443,50.335261500417971],[6.9489026001749039,50.335234800445733]]]},"properties":{"OBJECTID":62,"osm_id":" ","osm_way_id":"868291578","name":" ","type":" ","aeroway":" ","amenity":"parking","admin_leve":" ","barrier":" ","boundary":" ","building":" ","craft":" ","geological":" ","historic":" ","land_area":" ","landuse":" ","leisure":" ","man_made":" ","military":" ","natural":" ","office":" ","place":" ","shop":" ","sport":" ","tourism":" ","other_tags":"\"access\"=\u003e\"customers\"","Shape_Length":0.00024586834126692466,"Shape_Area":3.3479138104322466e-09}},{"type":"Feature","id":63,"geometry":{"type":"Polygon","coordinates":[[[6.9488248996494235,50.335336699928803],[6.9491471995836491,50.335543800306198],[6.9489182996398426,50.335674999701553],[6.9486170995995167,50.335503599711387],[6.9486661000605068,50.335461800122005],[6.9486615000282654,50.335429099873124],[6.9488248996494235,50.335336699928803]]]},"properties":{"OBJECTID":63,"osm_id":" ","osm_way_id":"868291582","name":" ","type":" ","aeroway":" ","amenity":"parking","admin_leve":" ","barrier":" ","boundary":" ","building":" ","craft":" ","geological":" ","historic":" ","land_area":" ","landuse":" ","leisure":" ","man_made":" ","military":" ","natural":" ","office":" ","place":" ","shop":" ","sport":" ","tourism":" ","other_tags":" ","Shape_Length":0.0012786355075561932,"Shape_Area":9.0927005236201102e-08}},{"type":"Feature","id":64,"geometry":{"type":"Polygon","coordinates":[[[6.9442622000405549,50.332322099585269],[6.943804900176076,50.332034400167515],[6.9440124996771715,50.331887799882111],[6.9442930998467318,50.33183699987768],[6.9446577002926801,50.332087399913632],[6.9442622000405549,50.332322099585269]]]},"properties":{"OBJECTID":64,"osm_id":" ","osm_way_id":"969133182","name":" ","type":" ","aeroway":" ","amenity":"parking","admin_leve":" ","barrier":" ","boundary":" ","building":" ","craft":" ","geological":" ","historic":" ","land_area":" ","landuse":" ","leisure":" ","man_made":" ","military":" ","natural":" ","office":" ","place":" ","shop":" ","sport":" ","tourism":" ","other_tags":" ","Shape_Length":0.001981778840837424,"Shape_Area":2.2296038922287876e-07}},{"type":"Feature","id":65,"geometry":{"type":"Polygon","coordinates":[[[6.9347200001279248,50.335318199975006],[6.933039900171309,50.334590800425133],[6.932966100005558,50.334558899673539],[6.9330046998070998,50.334507200347048],[6.9332278998477364,50.334308100338603],[6.9333624995797436,50.334045500099819],[6.93359100022451,50.333778000354471],[6.9336605996570029,50.333744600433022],[6.9343680000831682,50.334101300334794],[6.9349340999287961,50.334357199725048],[6.9347497002385126,50.334664499866847],[6.935062899932916,50.335469099919067],[6.9347200001279248,50.335318199975006]]]},"properties":{"OBJECTID":65,"osm_id":" ","osm_way_id":"973109205","name":"D2","type":" ","aeroway":" ","amenity":"parking","admin_leve":" ","barrier":" ","boundary":" ","building":" ","craft":" ","geological":" ","historic":" ","land_area":" ","landuse":" ","leisure":" ","man_made":" ","military":" ","natural":" ","office":" ","place":" ","shop":" ","sport":" ","tourism":" ","other_tags":"\"access\"=\u003e\"yes\",\"parking\"=\u003e\"surface\",\"surface\"=\u003e\"grass\"","Shape_Length":0.0060088334458223407,"Shape_Area":1.7101857644273482e-06}},{"type":"Feature","id":68,"geometry":{"type":"Polygon","coordinates":[[[6.943118399994205,50.329728899968813],[6.9430711999759183,50.32959440006158],[6.9427910000047177,50.329389299776437],[6.9426841002910464,50.329329899555262],[6.9424503997661873,50.329199899855553],[6.9420269998462345,50.32899800025757],[6.942966800377576,50.328216199817803],[6.94373310010252,50.328579200369859],[6.9437991004481887,50.328714200300169],[6.9438154995856962,50.328849200230479],[6.9442494998145889,50.329164800215437],[6.9443292004323212,50.329266500049016],[6.9444145002290725,50.329314499564532],[6.9446779997899171,50.329289299661525],[6.9450679997884208,50.329347199813469],[6.9452423999168786,50.329449200020633],[6.9455148998927712,50.329587499563502],[6.945305699598407,50.329640000185918],[6.9450323003004542,50.329448899647048],[6.9443373995513866,50.329373499587405],[6.9438403001897768,50.329497999932812],[6.9439473995528829,50.329582100033917],[6.9439789001062309,50.329601699858642],[6.943118399994205,50.329728899968813]]]},"properties":{"OBJECTID":68,"osm_id":" ","osm_way_id":"973109209","name":"B2a","type":" ","aeroway":" ","amenity":"parking","admin_leve":" ","barrier":" ","boundary":" ","building":" ","craft":" ","geological":" ","historic":" ","land_area":" ","landuse":" ","leisure":" ","man_made":" ","military":" ","natural":" ","office":" ","place":" ","shop":" ","sport":" ","tourism":" ","other_tags":"\"access\"=\u003e\"yes\",\"parking\"=\u003e\"surface\",\"surface\"=\u003e\"gravel\"","Shape_Length":0.008439359011986225,"Shape_Area":1.985217484113261e-06}},{"type":"Feature","id":70,"geometry":{"type":"Polygon","coordinates":[[[6.9483463002416102,50.336826100444227],[6.948419200185981,50.336800500342861],[6.9484542998260963,50.336788700338332],[6.9492420996432429,50.337132500364646],[6.9491926998832696,50.337227100050654],[6.9491213998327908,50.337363600050139],[6.9484536001535844,50.337287699967419],[6.9484480998999629,50.337164300392203],[6.9483534003891805,50.337120499811249],[6.9483784995681503,50.336856299678516],[6.9483463002416102,50.336826100444227]]]},"properties":{"OBJECTID":70,"osm_id":" ","osm_way_id":"1079635003","name":"Greschbachplatz","type":" ","aeroway":" ","amenity":"parking","admin_leve":" ","barrier":" ","boundary":" ","building":" ","craft":" ","geological":" ","historic":" ","land_area":" ","landuse":" ","leisure":" ","man_made":" ","military":" ","natural":" ","office":" ","place":" ","shop":" ","sport":" ","tourism":" ","other_tags":"\"parking\"=\u003e\"surface\",\"surface\"=\u003e\"gravel\"","Shape_Length":0.0024440602588873166,"Shape_Area":3.0917459701892924e-07}},{"type":"Feature","id":71,"geometry":{"type":"Polygon","coordinates":[[[6.9409201997074774,50.334802900133809],[6.9416851000873407,50.334976700414472],[6.9415787003967466,50.335157400293838],[6.9408112000768938,50.334973200253046],[6.9409201997074774,50.334802900133809]]]},"properties":{"OBJECTID":71,"osm_id":" ","osm_way_id":"1079720766","name":" ","type":" ","aeroway":" ","amenity":"parking","admin_leve":" ","barrier":" ","boundary":" ","building":" ","craft":" ","geological":" ","historic":" ","land_area":" ","landuse":" ","leisure":" ","man_made":" ","military":" ","natural":" ","office":" ","place":" ","shop":" ","sport":" ","tourism":" ","other_tags":"\"parking\"=\u003e\"surface\",\"surface\"=\u003e\"gravel\"","Shape_Length":0.0019855859623770372,"Shape_Area":1.5374641742031862e-07}},{"type":"Feature","id":72,"geometry":{"type":"Polygon","coordinates":[[[6.94078600017383,50.335004299708714],[6.9400000997248981,50.334809100059999],[6.9401888997979313,50.334630900295849],[6.9409201997074774,50.334802900133809],[6.94078600017383,50.335004299708714]]]},"properties":{"OBJECTID":72,"osm_id":" ","osm_way_id":"1079720767","name":" ","type":" ","aeroway":" ","amenity":"parking","admin_leve":" ","barrier":" ","boundary":" ","building":" ","craft":" ","geological":" ","historic":" ","land_area":" ","landuse":" ","leisure":" ","man_made":" ","military":" ","natural":" ","office":" ","place":" ","shop":" ","sport":" ","tourism":" ","other_tags":" ","Shape_Length":0.0020626652493713031,"Shape_Area":1.7363338576556103e-07}},{"type":"Feature","id":73,"geometry":{"type":"Polygon","coordinates":[[[6.9401888997979313,50.334630900295849],[6.9400000997248981,50.334809100059999],[6.9395628997081076,50.334678999636196],[6.9391953998478471,50.334529999959557],[6.9394719000082432,50.33437650007545],[6.9396874998782891,50.334476600015137],[6.9399588001585357,50.334576799779541],[6.9401888997979313,50.334630900295849]]]},"properties":{"OBJECTID":73,"osm_id":" ","osm_way_id":"1079720768","name":" ","type":" ","aeroway":" ","amenity":"parking","admin_leve":" ","barrier":" ","boundary":" ","building":" ","craft":" ","geological":" ","historic":" ","land_area":" ","landuse":" ","leisure":" ","man_made":" ","military":" ","natural":" ","office":" ","place":" ","shop":" ","sport":" ","tourism":" ","other_tags":" ","Shape_Length":0.0021918612062703296,"Shape_Area":1.8426094095546733e-07}}]
}