{
  "type" : "FeatureCollection",
  "features" : [{"type":"Feature","id":1,"geometry":{"type":"Polygon","coordinates":[[[14.749766399599707,47.221566500093957],[14.749852200318855,47.221634800006086],[14.74964419972008,47.221750700134749],[14.749600200389011,47.221712800005776],[14.749596800052302,47.221709799867426],[14.749698400061163,47.221651000393422],[14.749665500162735,47.22162480044426],[14.749766399599707,47.221566500093957]]]},"properties":{"OBJECTID":1,"osm_id":" ","osm_way_id":"155451865","name":" ","type":" ","aeroway":" ","amenity":" ","admin_leve":" ","barrier":" ","boundary":" ","building":"house","craft":" ","geological":" ","historic":" ","land_area":" ","landuse":" ","leisure":" ","man_made":" ","military":" ","natural":" ","office":" ","place":" ","shop":" ","sport":" ","tourism":" ","other_tags":"\"addr:city\"=\u003e\"Spielberg\",\"addr:country\"=\u003e\"AT\",\"addr:housenumber\"=\u003e\"57\",\"addr:place\"=\u003e\"Flatschach\",\"addr:postcode\"=\u003e\"8724\",\"addr:suburb\"=\u003e\"Flatschach\"","Shape_Length":0.00068636147370894601,"Shape_Area":1.8928819008601757e-08}},{"type":"Feature","id":2,"geometry":{"type":"Polygon","coordinates":[[[14.751223099866195,47.220401699978538],[14.751248299769259,47.220339900366184],[14.751636000201302,47.220412900135273],[14.751610699574201,47.220474699747626],[14.751223099866195,47.220401699978538]]]},"properties":{"OBJECTID":2,"osm_id":" ","osm_way_id":"155451879","name":" ","type":" ","aeroway":" ","amenity":" ","admin_leve":" ","barrier":" ","boundary":" ","building":"garage","craft":" ","geological":" ","historic":" ","land_area":" ","landuse":" ","leisure":" ","man_made":" ","military":" ","natural":" ","office":" ","place":" ","shop":" ","sport":" ","tourism":" ","other_tags":" ","Shape_Length":0.00092244531986680029,"Shape_Area":2.5799887576843158e-08}},{"type":"Feature","id":3,"geometry":{"type":"Polygon","coordinates":[[[14.751604999671031,47.219800899791721],[14.751709199619938,47.219623299875423],[14.751790799605772,47.219645299990646],[14.751735600117911,47.219739399653633],[14.751851600071348,47.219770800382207],[14.751802700334395,47.219854299736198],[14.751604999671031,47.219800899791721]]]},"properties":{"OBJECTID":3,"osm_id":" ","osm_way_id":"155451885","name":" ","type":" ","aeroway":" ","amenity":" ","admin_leve":" ","barrier":" ","boundary":" ","building":"cowshed","craft":" ","geological":" ","historic":" ","land_area":" ","landuse":" ","leisure":" ","man_made":" ","military":" ","natural":" ","office":" ","place":" ","shop":" ","sport":" ","tourism":" ","other_tags":" ","Shape_Length":0.00082124442941879788,"Shape_Area":2.8016663349593811e-08}},{"type":"Feature","id":4,"geometry":{"type":"Polygon","coordinates":[[[14.754228599969963,47.218980600274563],[14.753950900113978,47.218765100229234],[14.754085200371776,47.218685199962067],[14.754213399628725,47.218784700053902],[14.754250699909903,47.218762600113962],[14.754400199609563,47.218878500242624],[14.754228599969963,47.218980600274563]]]},"properties":{"OBJECTID":4,"osm_id":" ","osm_way_id":"155451890","name":" ","type":" ","aeroway":" ","amenity":" ","admin_leve":" ","barrier":" ","boundary":" ","building":"cowshed","craft":" ","geological":" ","historic":" ","land_area":" ","landuse":" ","leisure":" ","man_made":" ","military":" ","natural":" ","office":" ","place":" ","shop":" ","sport":" ","tourism":" ","other_tags":" ","Shape_Length":0.0011022565354076796,"Shape_Area":5.8763618032182573e-08}},{"type":"Feature","id":5,"geometry":{"type":"Polygon","coordinates":[[[14.750704700061931,47.221158299615865],[14.750777500181528,47.221074300238797],[14.750954100051729,47.221145000441481],[14.750881200107358,47.22122899981855],[14.750704700061931,47.221158299615865]]]},"properties":{"OBJECTID":5,"osm_id":" ","osm_way_id":"155451910","name":" ","type":" ","aeroway":" ","amenity":" ","admin_leve":" ","barrier":" ","boundary":" ","building":"farm","craft":" ","geological":" ","historic":" ","land_area":" ","landuse":" ","leisure":" ","man_made":" ","military":" ","natural":" ","office":" ","place":" ","shop":" ","sport":" ","tourism":" ","other_tags":"\"addr:city\"=\u003e\"Spielberg\",\"addr:country\"=\u003e\"AT\",\"addr:housenumber\"=\u003e\"32\",\"addr:place\"=\u003e\"Flatschach\",\"addr:postcode\"=\u003e\"8724\",\"addr:suburb\"=\u003e\"Flatschach\"","Shape_Length":0.00060273813606920735,"Shape_Area":1.998059850462504e-08}},{"type":"Feature","id":6,"geometry":{"type":"Polygon","coordinates":[[[14.751077200152736,47.220237099762414],[14.751117700221755,47.220141599855026],[14.751437099842349,47.220204199863986],[14.751396499948555,47.220299699771374],[14.751077200152736,47.220237099762414]]]},"properties":{"OBJECTID":6,"osm_id":" ","osm_way_id":"155451912","name":" ","type":" ","aeroway":" ","amenity":" ","admin_leve":" ","barrier":" ","boundary":" ","building":"stable","craft":" ","geological":" ","historic":" ","land_area":" ","landuse":" ","leisure":" ","man_made":" ","military":" ","natural":" ","office":" ","place":" ","shop":" ","sport":" ","tourism":" ","other_tags":" ","Shape_Length":0.00085835937252175286,"Shape_Area":3.3036296757575184e-08}},{"type":"Feature","id":7,"geometry":{"type":"Polygon","coordinates":[[[14.751499799676083,47.220209100269813],[14.751536900307769,47.220151999615155],[14.751838899845382,47.220242600016036],[14.751801800113014,47.220299699771374],[14.751499799676083,47.220209100269813]]]},"properties":{"OBJECTID":7,"osm_id":" ","osm_way_id":"155451915","name":" ","type":" ","aeroway":" ","amenity":" ","admin_leve":" ","barrier":" ","boundary":" ","building":"garage","craft":" ","geological":" ","historic":" ","land_area":" ","landuse":" ","leisure":" ","man_made":" ","military":" ","natural":" ","office":" ","place":" ","shop":" ","sport":" ","tourism":" ","other_tags":" ","Shape_Length":0.00076678340179130535,"Shape_Area":2.0605535864582735e-08}},{"type":"Feature","id":8,"geometry":{"type":"Polygon","coordinates":[[[14.754561900411431,47.219086199568494],[14.754470299964396,47.218986400002393],[14.754397599669517,47.219017199983853],[14.75435310031537,47.218968700445203],[14.754519599899652,47.218898199892067],[14.754655699700834,47.219046599720855],[14.754561900411431,47.219086199568494]]]},"properties":{"OBJECTID":8,"osm_id":" ","osm_way_id":"155451920","name":" ","type":" ","aeroway":" ","amenity":" ","admin_leve":" ","barrier":" ","boundary":" ","building":"yes","craft":" ","geological":" ","historic":" ","land_area":" ","landuse":" ","leisure":" ","man_made":" ","military":" ","natural":" ","office":" ","place":" ","shop":" ","sport":" ","tourism":" ","other_tags":" ","Shape_Length":0.00076422666301199558,"Shape_Area":2.4207365300990706e-08}},{"type":"Feature","id":9,"geometry":{"type":"Polygon","coordinates":[[[14.751786400122342,47.219300099719874],[14.751853799813034,47.219211000287487],[14.752020199572598,47.219269100088979],[14.751952899706623,47.219358200420686],[14.751786400122342,47.219300099719874]]]},"properties":{"OBJECTID":9,"osm_id":" ","osm_way_id":"155451921","name":" ","type":" ","aeroway":" ","amenity":" ","admin_leve":" ","barrier":" ","boundary":" ","building":"yes","craft":" ","geological":" ","historic":" ","land_area":" ","landuse":" ","leisure":" ","man_made":" ","military":" ","natural":" ","office":" ","place":" ","shop":" ","sport":" ","tourism":" ","other_tags":" ","Shape_Length":0.00057597797726449446,"Shape_Area":1.8743685171290273e-08}},{"type":"Feature","id":10,"geometry":{"type":"Polygon","coordinates":[[[14.750496700362476,47.221503700435505],[14.75055110035305,47.221440999702452],[14.750745700153971,47.221518700227875],[14.750691200338679,47.221581499886383],[14.750496700362476,47.221503700435505]]]},"properties":{"OBJECTID":10,"osm_id":" ","osm_way_id":"155451931","name":" ","type":" ","aeroway":" ","amenity":" ","admin_leve":" ","barrier":" ","boundary":" ","building":"garage","craft":" ","geological":" ","historic":" ","land_area":" ","landuse":" ","leisure":" ","man_made":" ","military":" ","natural":" ","office":" ","place":" ","shop":" ","sport":" ","tourism":" ","other_tags":" ","Shape_Length":0.00058518246975082088,"Shape_Area":1.6441522904257268e-08}},{"type":"Feature","id":11,"geometry":{"type":"Polygon","coordinates":[[[14.751386799860995,47.219783999731874],[14.751436599819272,47.219678799736869],[14.751573900215362,47.219708700396268],[14.751524100257086,47.21981400021599],[14.751386799860995,47.219783999731874]]]},"properties":{"OBJECTID":11,"osm_id":" ","osm_way_id":"155451932","name":" ","type":" ","aeroway":" ","amenity":" ","admin_leve":" ","barrier":" ","boundary":" ","building":"house","craft":" ","geological":" ","historic":" ","land_area":" ","landuse":" ","leisure":" ","man_made":" ","military":" ","natural":" ","office":" ","place":" ","shop":" ","sport":" ","tourism":" ","other_tags":"\"addr:city\"=\u003e\"Spielberg\",\"addr:country\"=\u003e\"AT\",\"addr:housenumber\"=\u003e\"22\",\"addr:place\"=\u003e\"Flatschach\",\"addr:postcode\"=\u003e\"8724\",\"addr:suburb\"=\u003e\"Flatschach\"","Shape_Length":0.00051393230797631018,"Shape_Area":1.5942391193438542e-08}},{"type":"Feature","id":12,"geometry":{"type":"Polygon","coordinates":[[[14.752654600229675,47.218850700399571],[14.752745699754314,47.2187553003169],[14.752948299924128,47.218844499574061],[14.752857200399546,47.218939899656675],[14.752654600229675,47.218850700399571]]]},"properties":{"OBJECTID":12,"osm_id":" ","osm_way_id":"155451933","name":" ","type":" ","aeroway":" ","amenity":" ","admin_leve":" ","barrier":" ","boundary":" ","building":"farm","craft":" ","geological":" ","historic":" ","land_area":" ","landuse":" ","leisure":" ","man_made":" ","military":" ","natural":" ","office":" ","place":" ","shop":" ","sport":" ","tourism":" ","other_tags":"\"addr:city\"=\u003e\"Spielberg\",\"addr:country\"=\u003e\"AT\",\"addr:housenumber\"=\u003e\"14\",\"addr:place\"=\u003e\"Flatschach\",\"addr:postcode\"=\u003e\"8724\",\"addr:suburb\"=\u003e\"Flatschach\"","Shape_Length":0.0007065543310277075,"Shape_Area":2.7454082866725324e-08}},{"type":"Feature","id":13,"geometry":{"type":"Polygon","coordinates":[[[14.754703999589935,47.218930400117927],[14.754634400157499,47.218854900233509],[14.754809999981546,47.218780199846378],[14.754879600313359,47.218855699730796],[14.754703999589935,47.218930400117927]]]},"properties":{"OBJECTID":13,"osm_id":" ","osm_way_id":"155451935","name":" ","type":" ","aeroway":" ","amenity":" ","admin_leve":" ","barrier":" ","boundary":" ","building":"detached","craft":" ","geological":" ","historic":" ","land_area":" ","landuse":" ","leisure":" ","man_made":" ","military":" ","natural":" ","office":" ","place":" ","shop":" ","sport":" ","tourism":" ","other_tags":"\"addr:city\"=\u003e\"Spielberg\",\"addr:country\"=\u003e\"AT\",\"addr:district\"=\u003e\"Murtal\",\"addr:housenumber\"=\u003e\"3\",\"addr:postcode\"=\u003e\"8724\",\"addr:street\"=\u003e\"Lacklweg\",\"addr:suburb\"=\u003e\"Flatschach\",\"at_bev:addr_date\"=\u003e\"2019-10-01\"","Shape_Length":0.00058702908433475942,"Shape_Area":1.8456938509606177e-08}},{"type":"Feature","id":14,"geometry":{"type":"Polygon","coordinates":[[[14.751118899917344,47.220528200416197],[14.751165300438288,47.220423200070684],[14.751363100027106,47.220463499590892],[14.751316599681388,47.220568599761123],[14.751118899917344,47.220528200416197]]]},"properties":{"OBJECTID":14,"osm_id":" ","osm_way_id":"155451938","name":" ","type":" ","aeroway":" ","amenity":" ","admin_leve":" ","barrier":" ","boundary":" ","building":"house","craft":" ","geological":" ","historic":" ","land_area":" ","landuse":" ","leisure":" ","man_made":" ","military":" ","natural":" ","office":" ","place":" ","shop":" ","sport":" ","tourism":" ","other_tags":"\"addr:city\"=\u003e\"Spielberg\",\"addr:country\"=\u003e\"AT\",\"addr:housenumber\"=\u003e\"26\",\"addr:place\"=\u003e\"Flatschach\",\"addr:postcode\"=\u003e\"8724\",\"addr:suburb\"=\u003e\"Flatschach\"","Shape_Length":0.0006333717472429216,"Shape_Area":2.2647903130596067e-08}},{"type":"Feature","id":15,"geometry":{"type":"Polygon","coordinates":[[[14.753459800129747,47.217952200333855],[14.753540999917277,47.217712100233314],[14.754040399744724,47.217790000408229],[14.753959299781911,47.218029999784733],[14.753459800129747,47.217952200333855]]]},"properties":{"OBJECTID":15,"osm_id":" ","osm_way_id":"155451946","name":" ","type":" ","aeroway":" ","amenity":" ","admin_leve":" ","barrier":" ","boundary":" ","building":"cowshed","craft":" ","geological":" ","historic":" ","land_area":" ","landuse":" ","leisure":" ","man_made":" ","military":" ","natural":" ","office":" ","place":" ","shop":" ","sport":" ","tourism":" ","other_tags":" ","Shape_Length":0.0015177518128598733,"Shape_Area":1.2621028204418633e-07}},{"type":"Feature","id":16,"geometry":{"type":"Polygon","coordinates":[[[14.751213100304369,47.220106400390137],[14.751267299746132,47.219998800104577],[14.75140240040048,47.220030199933831],[14.751348100234679,47.220137800219334],[14.751213100304369,47.220106400390137]]]},"properties":{"OBJECTID":16,"osm_id":" ","osm_way_id":"155451947","name":" ","type":" ","aeroway":" ","amenity":" ","admin_leve":" ","barrier":" ","boundary":" ","building":"farm","craft":" ","geological":" ","historic":" ","land_area":" ","landuse":" ","leisure":" ","man_made":" ","military":" ","natural":" ","office":" ","place":" ","shop":" ","sport":" ","tourism":" ","other_tags":"\"addr:city\"=\u003e\"Spielberg\",\"addr:country\"=\u003e\"AT\",\"addr:housenumber\"=\u003e\"24\",\"addr:place\"=\u003e\"Flatschach\",\"addr:postcode\"=\u003e\"8724\",\"addr:suburb\"=\u003e\"Flatschach\"","Shape_Length":0.00051831020997505049,"Shape_Area":1.6234884589934025e-08}},{"type":"Feature","id":17,"geometry":{"type":"Polygon","coordinates":[[[14.750478599707662,47.221434000278919],[14.750309900381637,47.221364099573577],[14.750414100330488,47.221248099620141],[14.750513100399303,47.221289099712237],[14.750452899781521,47.221356100104003],[14.750522599938108,47.221384999817928],[14.750478599707662,47.221434000278919]]]},"properties":{"OBJECTID":17,"osm_id":" ","osm_way_id":"155451957","name":" ","type":" ","aeroway":" ","amenity":" ","admin_leve":" ","barrier":" ","boundary":" ","building":"stable","craft":" ","geological":" ","historic":" ","land_area":" ","landuse":" ","leisure":" ","man_made":" ","military":" ","natural":" ","office":" ","place":" ","shop":" ","sport":" ","tourism":" ","other_tags":" ","Shape_Length":0.00067707365350721247,"Shape_Area":2.0443925796830903e-08}},{"type":"Feature","id":18,"geometry":{"type":"Polygon","coordinates":[[[14.754004700256758,47.218411799764795],[14.754039899721647,47.218371900442889],[14.754168300426784,47.218424199617175],[14.7541330002378,47.2184640998384],[14.754004700256758,47.218411799764795]]]},"properties":{"OBJECTID":18,"osm_id":" ","osm_way_id":"155451959","name":"Camper-Stadl","type":" ","aeroway":" ","amenity":" ","admin_leve":" ","barrier":" ","boundary":" ","building":"yes","craft":" ","geological":" ","historic":" ","land_area":" ","landuse":" ","leisure":" ","man_made":" ","military":" ","natural":" ","office":" ","place":" ","shop":" ","sport":" ","tourism":" ","other_tags":"\"addr:city\"=\u003e\"Spielberg\",\"addr:country\"=\u003e\"AT\",\"addr:housenumber\"=\u003e\"4\",\"addr:postcode\"=\u003e\"8724\",\"addr:street\"=\u003e\"Lacklweg\",\"at_bev:addr_date\"=\u003e\"2019-10-01\"","Shape_Length":0.00038367437966370735,"Shape_Area":6.964702062480243e-09}},{"type":"Feature","id":19,"geometry":{"type":"Polygon","coordinates":[[[14.751539900446119,47.219392999687216],[14.751594400261411,47.219309600157999],[14.751726499878089,47.219357400024023],[14.751671599864494,47.219430700166754],[14.751539900446119,47.219392999687216]]]},"properties":{"OBJECTID":19,"osm_id":" ","osm_way_id":"155451962","name":" ","type":" ","aeroway":" ","amenity":" ","admin_leve":" ","barrier":" ","boundary":" ","building":"house","craft":" ","geological":" ","historic":" ","land_area":" ","landuse":" ","leisure":" ","man_made":" ","military":" ","natural":" ","office":" ","place":" ","shop":" ","sport":" ","tourism":" ","other_tags":"\"addr:city\"=\u003e\"Spielberg\",\"addr:country\"=\u003e\"AT\",\"addr:housenumber\"=\u003e\"18\",\"addr:place\"=\u003e\"Flatschach\",\"addr:postcode\"=\u003e\"8724\",\"addr:suburb\"=\u003e\"Flatschach\"","Shape_Length":0.00046867908601387951,"Shape_Area":1.2672736356817469e-08}},{"type":"Feature","id":20,"geometry":{"type":"Polygon","coordinates":[[[14.752425100438074,47.218892599813671],[14.752489099792172,47.218832999943061],[14.752787600067734,47.218980799924054],[14.752723599814317,47.219040399794665],[14.752425100438074,47.218892599813671]]]},"properties":{"OBJECTID":20,"osm_id":" ","osm_way_id":"155451963","name":" ","type":" ","aeroway":" ","amenity":" ","admin_leve":" ","barrier":" ","boundary":" ","building":"garage","craft":" ","geological":" ","historic":" ","land_area":" ","landuse":" ","leisure":" ","man_made":" ","military":" ","natural":" ","office":" ","place":" ","shop":" ","sport":" ","tourism":" ","other_tags":" ","Shape_Length":0.00084108114753335753,"Shape_Area":2.7249720779868475e-08}},{"type":"Feature","id":21,"geometry":{"type":"Polygon","coordinates":[[[14.751794899614993,47.219473300152742],[14.751671599864494,47.219430700166754],[14.751726499878089,47.219357400024023],[14.751849799628587,47.219400099834786],[14.751794899614993,47.219473300152742]]]},"properties":{"OBJECTID":21,"osm_id":" ","osm_way_id":"155451971","name":" ","type":" ","aeroway":" ","amenity":" ","admin_leve":" ","barrier":" ","boundary":" ","building":"house","craft":" ","geological":" ","historic":" ","land_area":" ","landuse":" ","leisure":" ","man_made":" ","military":" ","natural":" ","office":" ","place":" ","shop":" ","sport":" ","tourism":" ","other_tags":" ","Shape_Length":0.00044401598688216309,"Shape_Area":1.1373215125957026e-08}},{"type":"Feature","id":22,"geometry":{"type":"Polygon","coordinates":[[[14.752092600393269,47.220240500099067],[14.752011299881644,47.220369899950981],[14.75179410011765,47.220306899743662],[14.751801800113014,47.220299699771374],[14.751838899845382,47.220242600016036],[14.751952600232357,47.220278699702305],[14.751994499646514,47.220211999684068],[14.752092600393269,47.220240500099067]]]},"properties":{"OBJECTID":22,"osm_id":" ","osm_way_id":"155451972","name":" ","type":" ","aeroway":" ","amenity":" ","admin_leve":" ","barrier":" ","boundary":" ","building":"yes","craft":" ","geological":" ","historic":" ","land_area":" ","landuse":" ","leisure":" ","man_made":" ","military":" ","natural":" ","office":" ","place":" ","shop":" ","sport":" ","tourism":" ","other_tags":" ","Shape_Length":0.00075782704666598887,"Shape_Area":2.3807008364561262e-08}},{"type":"Feature","id":23,"geometry":{"type":"Polygon","coordinates":[[[14.752997199661081,47.218081100162692],[14.753015699614878,47.218012300227542],[14.753082299808341,47.218020500245927],[14.753135599928044,47.217822199734769],[14.75335210001947,47.217849000431102],[14.753280299945914,47.218116299627582],[14.752997199661081,47.218081100162692]]]},"properties":{"OBJECTID":23,"osm_id":" ","osm_way_id":"155451981","name":" ","type":" ","aeroway":" ","amenity":" ","admin_leve":" ","barrier":" ","boundary":" ","building":"yes","craft":" ","geological":" ","historic":" ","land_area":" ","landuse":" ","leisure":" ","man_made":" ","military":" ","natural":" ","office":" ","place":" ","shop":" ","sport":" ","tourism":" ","other_tags":"\"addr:city\"=\u003e\"Spielberg\",\"addr:country\"=\u003e\"AT\",\"addr:housenumber\"=\u003e\"6\",\"addr:postcode\"=\u003e\"8724\",\"addr:street\"=\u003e\"Lacklweg\",\"at_bev:addr_date\"=\u003e\"2019-10-01\"","Shape_Length":0.0011238929027592292,"Shape_Area":6.452468086936298e-08}},{"type":"Feature","id":24,"geometry":{"type":"Polygon","coordinates":[[[14.751976800089324,47.218843799901492],[14.752087000314873,47.218765000404517],[14.752393099861706,47.218962299970201],[14.752282899636157,47.219041100366553],[14.751976800089324,47.218843799901492]]]},"properties":{"OBJECTID":24,"osm_id":" ","osm_way_id":"155451991","name":" ","type":" ","aeroway":" ","amenity":" ","admin_leve":" ","barrier":" ","boundary":" ","building":"cowshed","craft":" ","geological":" ","historic":" ","land_area":" ","landuse":" ","leisure":" ","man_made":" ","military":" ","natural":" ","office":" ","place":" ","shop":" ","sport":" ","tourism":" ","other_tags":" ","Shape_Length":0.00099930252847277865,"Shape_Area":4.5863134159207507e-08}},{"type":"Feature","id":25,"geometry":{"type":"Polygon","coordinates":[[[14.751615199781668,47.220113100339347],[14.751758200080928,47.219915100201774],[14.751966699803404,47.219984599809493],[14.75182370040352,47.220182500122348],[14.751615199781668,47.220113100339347]]]},"properties":{"OBJECTID":25,"osm_id":" ","osm_way_id":"155452002","name":" ","type":" ","aeroway":" ","amenity":" ","admin_leve":" ","barrier":" ","boundary":" ","building":"cowshed","craft":" ","geological":" ","historic":" ","land_area":" ","landuse":" ","leisure":" ","man_made":" ","military":" ","natural":" ","office":" ","place":" ","shop":" ","sport":" ","tourism":" ","other_tags":" ","Shape_Length":0.00092792352741411324,"Shape_Area":5.1203952026330897e-08}},{"type":"Feature","id":26,"geometry":{"type":"Polygon","coordinates":[[[14.752134399982594,47.219214299900045],[14.752183600093133,47.21912630033853],[14.752400000359785,47.219182099674242],[14.752350700424529,47.219270100135077],[14.752134399982594,47.219214299900045]]]},"properties":{"OBJECTID":26,"osm_id":" ","osm_way_id":"155452004","name":" ","type":" ","aeroway":" ","amenity":" ","admin_leve":" ","barrier":" ","boundary":" ","building":"house","craft":" ","geological":" ","historic":" ","land_area":" ","landuse":" ","leisure":" ","man_made":" ","military":" ","natural":" ","office":" ","place":" ","shop":" ","sport":" ","tourism":" ","other_tags":"\"addr:city\"=\u003e\"Spielberg\",\"addr:country\"=\u003e\"AT\",\"addr:housenumber\"=\u003e\"16\",\"addr:place\"=\u003e\"Flatschach\",\"addr:postcode\"=\u003e\"8724\",\"addr:suburb\"=\u003e\"Flatschach\"","Shape_Length":0.00064854912686441719,"Shape_Area":2.1786974302719047e-08}},{"type":"Feature","id":27,"geometry":{"type":"Polygon","coordinates":[[[14.752478100184248,47.218800100044632],[14.75224810036957,47.218700799602288],[14.752406099561881,47.218532100276263],[14.752636100275879,47.218631399819287],[14.752478100184248,47.218800100044632]]]},"properties":{"OBJECTID":27,"osm_id":" ","osm_way_id":"155452035","name":" ","type":" ","aeroway":" ","amenity":" ","admin_leve":" ","barrier":" ","boundary":" ","building":"cowshed","craft":" ","geological":" ","historic":" ","land_area":" ","landuse":" ","leisure":" ","man_made":" ","military":" ","natural":" ","office":" ","place":" ","shop":" ","sport":" ","tourism":" ","other_tags":" ","Shape_Length":0.00096331184484151782,"Shape_Area":5.4490356293010641e-08}},{"type":"Feature","id":28,"geometry":{"type":"Polygon","coordinates":[[[14.751913700057287,47.219490899885159],[14.751960900075517,47.219438300337345],[14.752061599862998,47.219479900277236],[14.752014399844711,47.21953249982505],[14.751913700057287,47.219490899885159]]]},"properties":{"OBJECTID":28,"osm_id":" ","osm_way_id":"155452036","name":" ","type":" ","aeroway":" ","amenity":" ","admin_leve":" ","barrier":" ","boundary":" ","building":"yes","craft":" ","geological":" ","historic":" ","land_area":" ","landuse":" ","leisure":" ","man_made":" ","military":" ","natural":" ","office":" ","place":" ","shop":" ","sport":" ","tourism":" ","other_tags":" ","Shape_Length":0.00035925257704623155,"Shape_Area":7.2602812073998987e-09}},{"type":"Feature","id":29,"geometry":{"type":"Polygon","coordinates":[[[14.750044600378033,47.221870999746898],[14.750022700087584,47.221886399737627],[14.749859199742332,47.221779099825653],[14.749954099801926,47.22171249963219],[14.750091800396319,47.22180290038358],[14.750111900244065,47.221788799913213],[14.750137600170149,47.2218056001484],[14.750044600378033,47.221870999746898]]]},"properties":{"OBJECTID":29,"osm_id":" ","osm_way_id":"155452039","name":" ","type":" ","aeroway":" ","amenity":" ","admin_leve":" ","barrier":" ","boundary":" ","building":"house","craft":" ","geological":" ","historic":" ","land_area":" ","landuse":" ","leisure":" ","man_made":" ","military":" ","natural":" ","office":" ","place":" ","shop":" ","sport":" ","tourism":" ","other_tags":"\"addr:city\"=\u003e\"Spielberg\",\"addr:country\"=\u003e\"AT\",\"addr:housenumber\"=\u003e\"36\",\"addr:place\"=\u003e\"Flatschach\",\"addr:postcode\"=\u003e\"8724\",\"addr:suburb\"=\u003e\"Flatschach\"","Shape_Length":0.00067194828350722357,"Shape_Area":2.1763748387488713e-08}},{"type":"Feature","id":30,"geometry":{"type":"Polygon","coordinates":[[[14.754996799962385,47.21912399987275],[14.755027699768561,47.219098299946666],[14.755076800054326,47.219125499941924],[14.755046000072866,47.219151199868008],[14.754996799962385,47.21912399987275]]]},"properties":{"OBJECTID":30,"osm_id":" ","osm_way_id":"155452046","name":" ","type":" ","aeroway":" ","amenity":" ","admin_leve":" ","barrier":" ","boundary":" ","building":"detached","craft":" ","geological":" ","historic":" ","land_area":" ","landuse":" ","leisure":" ","man_made":" ","military":" ","natural":" ","office":" ","place":" ","shop":" ","sport":" ","tourism":" ","other_tags":" ","Shape_Length":0.00019265363951653287,"Shape_Area":2.1022734243715937e-09}},{"type":"Feature","id":31,"geometry":{"type":"Polygon","coordinates":[[[14.753438300037544,47.218407400281365],[14.753528000217102,47.218303300157231],[14.753977000238422,47.218481999944402],[14.753887300058921,47.218586000243761],[14.753438300037544,47.218407400281365]]]},"properties":{"OBJECTID":31,"osm_id":" ","osm_way_id":"155452047","name":"Party-Stadl","type":" ","aeroway":" ","amenity":" ","admin_leve":" ","barrier":" ","boundary":" ","building":"shed","craft":" ","geological":" ","historic":" ","land_area":" ","landuse":" ","leisure":" ","man_made":" ","military":" ","natural":" ","office":" ","place":" ","shop":" ","sport":" ","tourism":" ","other_tags":" ","Shape_Length":0.0012412264627844466,"Shape_Area":6.2743473136285116e-08}},{"type":"Feature","id":32,"geometry":{"type":"Polygon","coordinates":[[[14.763830999600998,47.217732499555268],[14.763912599586831,47.217538499602142],[14.76402229978936,47.217559700220022],[14.763940699803527,47.217753799997922],[14.763830999600998,47.217732499555268]]]},"properties":{"OBJECTID":32,"osm_id":" ","osm_way_id":"155459230","name":" ","type":" ","aeroway":" ","amenity":" ","admin_leve":" ","barrier":" ","boundary":" ","building":"yes","craft":" ","geological":" ","historic":" ","land_area":" ","landuse":" ","leisure":" ","man_made":" ","military":" ","natural":" ","office":" ","place":" ","shop":" ","sport":" ","tourism":" ","other_tags":" ","Shape_Length":0.0006444964328690204,"Shape_Area":2.3021352516244934e-08}},{"type":"Feature","id":33,"geometry":{"type":"Polygon","coordinates":[[[14.763146600235473,47.217551699851128],[14.763174800276886,47.217409499948531],[14.763684099841385,47.217455899570155],[14.763655999624746,47.217598200196846],[14.763146600235473,47.217551699851128]]]},"properties":{"OBJECTID":33,"osm_id":" ","osm_way_id":"155459232","name":" ","type":" ","aeroway":" ","amenity":" ","admin_leve":" ","barrier":" ","boundary":" ","building":"yes","craft":" ","geological":" ","historic":" ","land_area":" ","landuse":" ","leisure":" ","man_made":" ","military":" ","natural":" ","office":" ","place":" ","shop":" ","sport":" ","tourism":" ","other_tags":" ","Shape_Length":0.0013129439109950882,"Shape_Area":7.3762670917318898e-08}},{"type":"Feature","id":34,"geometry":{"type":"Polygon","coordinates":[[[14.762825699646385,47.217629799675592],[14.76279729995548,47.217494899569999],[14.763067899663895,47.217468699620838],[14.763096300254119,47.217603599726374],[14.762825699646385,47.217629799675592]]]},"properties":{"OBJECTID":34,"osm_id":" ","osm_way_id":"155459237","name":" ","type":" ","aeroway":" ","amenity":" ","admin_leve":" ","barrier":" ","boundary":" ","building":"yes","craft":" ","geological":" ","historic":" ","land_area":" ","landuse":" ","leisure":" ","man_made":" ","military":" ","natural":" ","office":" ","place":" ","shop":" ","sport":" ","tourism":" ","other_tags":"\"addr:city\"=\u003e\"Spielberg\",\"addr:country\"=\u003e\"AT\",\"addr:housenumber\"=\u003e\"2\",\"addr:postcode\"=\u003e\"8724\",\"addr:street\"=\u003e\"Kattigarweg\",\"at_bev:addr_date\"=\u003e\"2019-10-01\"","Shape_Length":0.00081944551246842861,"Shape_Area":3.7248072129801235e-08}},{"type":"Feature","id":35,"geometry":{"type":"Polygon","coordinates":[[[14.762418299564899,47.217434199828517],[14.762422699947706,47.2173926997134],[14.762530099684398,47.21739800031753],[14.762525700200968,47.21743939970861],[14.762418299564899,47.217434199828517]]]},"properties":{"OBJECTID":35,"osm_id":" ","osm_way_id":"155459240","name":" ","type":" ","aeroway":" ","amenity":" ","admin_leve":" ","barrier":" ","boundary":" ","building":"yes","craft":" ","geological":" ","historic":" ","land_area":" ","landuse":" ","leisure":" ","man_made":" ","military":" ","natural":" ","office":" ","place":" ","shop":" ","sport":" ","tourism":" ","other_tags":" ","Shape_Length":0.0002984221562245826,"Shape_Area":4.4748119222999513e-09}},{"type":"Feature","id":36,"geometry":{"type":"Polygon","coordinates":[[[14.761382900200715,47.218074300388707],[14.761421199628728,47.217956800366096],[14.76184759968703,47.218021000269005],[14.761809300259074,47.218138500291616],[14.761382900200715,47.218074300388707]]]},"properties":{"OBJECTID":36,"osm_id":" ","osm_way_id":"155459242","name":" ","type":" ","aeroway":" ","amenity":" ","admin_leve":" ","barrier":" ","boundary":" ","building":"yes","craft":" ","geological":" ","historic":" ","land_area":" ","landuse":" ","leisure":" ","man_made":" ","military":" ","natural":" ","office":" ","place":" ","shop":" ","sport":" ","tourism":" ","other_tags":" ","Shape_Length":0.0011095808333432542,"Shape_Area":5.2560836053331005e-08}},{"type":"Feature","id":37,"geometry":{"type":"Polygon","coordinates":[[[14.761572800144677,47.217877699596215],[14.761591499747965,47.217803799605747],[14.761764100333039,47.217823900352755],[14.761745499655149,47.21789780034328],[14.761572800144677,47.217877699596215]]]},"properties":{"OBJECTID":37,"osm_id":" ","osm_way_id":"155459245","name":" ","type":" ","aeroway":" ","amenity":" ","admin_leve":" ","barrier":" ","boundary":" ","building":"yes","craft":" ","geological":" ","historic":" ","land_area":" ","landuse":" ","leisure":" ","man_made":" ","military":" ","natural":" ","office":" ","place":" ","shop":" ","sport":" ","tourism":" ","other_tags":" ","Shape_Length":0.0005000665432371874,"Shape_Area":1.3133718647875594e-08}},{"type":"Feature","id":38,"geometry":{"type":"Polygon","coordinates":[[[14.762837899849274,47.218683699892892],[14.762666599683882,47.218659199662397],[14.762690500066583,47.218582099884031],[14.76261950038969,47.218571899773394],[14.762734399572935,47.218201100300575],[14.762976800139256,47.21823569991767],[14.762837899849274,47.218683699892892]]]},"properties":{"OBJECTID":38,"osm_id":" ","osm_way_id":"155459249","name":" ","type":" ","aeroway":" ","amenity":" ","admin_leve":" ","barrier":" ","boundary":" ","building":"yes","craft":" ","geological":" ","historic":" ","land_area":" ","landuse":" ","leisure":" ","man_made":" ","military":" ","natural":" ","office":" ","place":" ","shop":" ","sport":" ","tourism":" ","other_tags":" ","Shape_Length":0.0014275807434971732,"Shape_Area":1.0765609370447397e-07}},{"type":"Feature","id":39,"geometry":{"type":"Polygon","coordinates":[[[14.763123799723644,47.218208699571903],[14.763097499949708,47.218118299719833],[14.763439000409619,47.21807240012123],[14.763465300183498,47.218162899798017],[14.763123799723644,47.218208699571903]]]},"properties":{"OBJECTID":39,"osm_id":" ","osm_way_id":"155459251","name":" ","type":" ","aeroway":" ","amenity":" ","admin_leve":" ","barrier":" ","boundary":" ","building":"yes","craft":" ","geological":" ","historic":" ","land_area":" ","landuse":" ","leisure":" ","man_made":" ","military":" ","natural":" ","office":" ","place":" ","shop":" ","sport":" ","tourism":" ","other_tags":"\"addr:city\"=\u003e\"Spielberg\",\"addr:country\"=\u003e\"AT\",\"addr:housenumber\"=\u003e\"4\",\"addr:postcode\"=\u003e\"8724\",\"addr:street\"=\u003e\"Kattigarweg\",\"at_bev:addr_date\"=\u003e\"2019-10-01\"","Shape_Length":0.00087752067842160179,"Shape_Area":3.209447253052255e-08}},{"type":"Feature","id":40,"geometry":{"type":"Polygon","coordinates":[[[14.761311100127216,47.217720499901191],[14.761298300076533,47.217611100072247],[14.761492600403244,47.217600700312119],[14.761505299729833,47.217710000316288],[14.761311100127216,47.217720499901191]]]},"properties":{"OBJECTID":40,"osm_id":" ","osm_way_id":"155459252","name":" ","type":" ","aeroway":" ","amenity":" ","admin_leve":" ","barrier":" ","boundary":" ","building":"yes","craft":" ","geological":" ","historic":" ","land_area":" ","landuse":" ","leisure":" ","man_made":" ","military":" ","natural":" ","office":" ","place":" ","shop":" ","sport":" ","tourism":" ","other_tags":"\"addr:city\"=\u003e\"Spielberg\",\"addr:country\"=\u003e\"AT\",\"addr:housenumber\"=\u003e\"1\",\"addr:postcode\"=\u003e\"8724\",\"addr:street\"=\u003e\"Kattigarweg\",\"at_bev:addr_date\"=\u003e\"2019-10-01\"","Shape_Length":0.00060924306407318305,"Shape_Area":2.1374447498063033e-08}},{"type":"Feature","id":41,"geometry":{"type":"Polygon","coordinates":[[[14.761911699765164,47.217686299583136],[14.7619264999081,47.217646000062928],[14.762016999584887,47.217661400053601],[14.762002200341328,47.217701699573809],[14.761911699765164,47.217686299583136]]]},"properties":{"OBJECTID":41,"osm_id":" ","osm_way_id":"155459255","name":" ","type":" ","aeroway":" ","amenity":" ","admin_leve":" ","barrier":" ","boundary":" ","building":"yes","craft":" ","geological":" ","historic":" ","land_area":" ","landuse":" ","leisure":" ","man_made":" ","military":" ","natural":" ","office":" ","place":" ","shop":" ","sport":" ","tourism":" ","other_tags":" ","Shape_Length":0.00026946436568017448,"Shape_Area":3.8750268136907211e-09}},{"type":"Feature","id":42,"geometry":{"type":"Polygon","coordinates":[[[14.763507699620675,47.218115099931993],[14.763496600187977,47.218059699895264],[14.763632299790856,47.218047200218166],[14.763643400122874,47.218102600254838],[14.763507699620675,47.218115099931993]]]},"properties":{"OBJECTID":42,"osm_id":" ","osm_way_id":"155459295","name":" ","type":" ","aeroway":" ","amenity":" ","admin_leve":" ","barrier":" ","boundary":" ","building":"yes","craft":" ","geological":" ","historic":" ","land_area":" ","landuse":" ","leisure":" ","man_made":" ","military":" ","natural":" ","office":" ","place":" ","shop":" ","sport":" ","tourism":" ","other_tags":" ","Shape_Length":0.00038555119979566366,"Shape_Area":7.6565328364949724e-09}},{"type":"Feature","id":43,"geometry":{"type":"Polygon","coordinates":[[[14.763500999671464,47.217893899983551],[14.76352070022017,47.217814399914687],[14.763893300135749,47.217856900075958],[14.76387370031108,47.217936400144822],[14.763500999671464,47.217893899983551]]]},"properties":{"OBJECTID":43,"osm_id":" ","osm_way_id":"155459301","name":" ","type":" ","aeroway":" ","amenity":" ","admin_leve":" ","barrier":" ","boundary":" ","building":"yes","craft":" ","geological":" ","historic":" ","land_area":" ","landuse":" ","leisure":" ","man_made":" ","military":" ","natural":" ","office":" ","place":" ","shop":" ","sport":" ","tourism":" ","other_tags":" ","Shape_Length":0.00091391711197689801,"Shape_Area":3.0460858834403499e-08}},{"type":"Feature","id":44,"geometry":{"type":"Polygon","coordinates":[[[14.762976899964031,47.217743199688982],[14.76296269966889,47.217672299836806],[14.763264600281104,47.21764459981847],[14.763278699852151,47.217715499670646],[14.762976899964031,47.217743199688982]]]},"properties":{"OBJECTID":44,"osm_id":" ","osm_way_id":"155459308","name":" ","type":" ","aeroway":" ","amenity":" ","admin_leve":" ","barrier":" ","boundary":" ","building":"yes","craft":" ","geological":" ","historic":" ","land_area":" ","landuse":" ","leisure":" ","man_made":" ","military":" ","natural":" ","office":" ","place":" ","shop":" ","sport":" ","tourism":" ","other_tags":" ","Shape_Length":0.00075083328640607064,"Shape_Area":2.1793091522280556e-08}},{"type":"Feature","id":45,"geometry":{"type":"Polygon","coordinates":[[[14.762988600143842,47.218045799973765],[14.763000699622637,47.217865399568609],[14.76324720019818,47.2178729997392],[14.763241100096764,47.217965000384538],[14.76314620003717,47.217962100070906],[14.763140299585189,47.218050499830781],[14.762988600143842,47.218045799973765]]]},"properties":{"OBJECTID":45,"osm_id":" ","osm_way_id":"155459313","name":" ","type":" ","aeroway":" ","amenity":" ","admin_leve":" ","barrier":" ","boundary":" ","building":"yes","craft":" ","geological":" ","historic":" ","land_area":" ","landuse":" ","leisure":" ","man_made":" ","military":" ","natural":" ","office":" ","place":" ","shop":" ","sport":" ","tourism":" ","other_tags":" ","Shape_Length":0.00085493913411700026,"Shape_Area":3.6167872655283173e-08}},{"type":"Feature","id":46,"geometry":{"type":"Polygon","coordinates":[[[14.769320099842787,47.228507099822878],[14.76927909975069,47.228489599915179],[14.769238999879974,47.228532699924187],[14.7691656997373,47.22850130009499],[14.769197200290591,47.228467400150464],[14.769052899571705,47.228405599638791],[14.769006199576495,47.228455899620144],[14.768921899825841,47.2284197001091],[14.769076399756102,47.228253300349593],[14.76941940028513,47.228400299933924],[14.769320099842787,47.228507099822878]]]},"properties":{"OBJECTID":46,"osm_id":" ","osm_way_id":"155581831","name":" ","type":" ","aeroway":" ","amenity":" ","admin_leve":" ","barrier":" ","boundary":" ","building":"yes","craft":" ","geological":" ","historic":" ","land_area":" ","landuse":" ","leisure":" ","man_made":" ","military":" ","natural":" ","office":" ","place":" ","shop":" ","sport":" ","tourism":" ","other_tags":" ","Shape_Length":0.0012928953538548244,"Shape_Area":6.4548702620363538e-08}},{"type":"Feature","id":47,"geometry":{"type":"Polygon","coordinates":[[[14.762326000344672,47.226701200000434],[14.762328399735907,47.226549600383805],[14.762607200362083,47.226551599576737],[14.762604800071529,47.226703299917403],[14.762326000344672,47.226701200000434]]]},"properties":{"OBJECTID":47,"osm_id":" ","osm_way_id":"155581832","name":" ","type":" ","aeroway":" ","amenity":" ","admin_leve":" ","barrier":" ","boundary":" ","building":"yes","craft":" ","geological":" ","historic":" ","land_area":" ","landuse":" ","leisure":" ","man_made":" ","military":" ","natural":" ","office":" ","place":" ","shop":" ","sport":" ","tourism":" ","other_tags":"\"addr:city\"=\u003e\"Spielberg\",\"addr:country\"=\u003e\"AT\",\"addr:housenumber\"=\u003e\"20\",\"addr:postcode\"=\u003e\"8724\",\"addr:street\"=\u003e\"Red Bull Ring Straße\",\"at_bev:addr_date\"=\u003e\"2017-10-01\"","Shape_Length":0.00086095336098763228,"Shape_Area":4.2284959421505817e-08}},{"type":"Feature","id":48,"geometry":{"type":"Polygon","coordinates":[[[14.761115500280141,47.227800499793261],[14.761139299938804,47.227837399876137],[14.761183399993968,47.22790839955303],[14.761012800400465,47.227957300189303],[14.76094549963517,47.227849199880723],[14.761115500280141,47.227800499793261]]]},"properties":{"OBJECTID":48,"osm_id":" ","osm_way_id":"155581840","name":" ","type":" ","aeroway":" ","amenity":" ","admin_leve":" ","barrier":" ","boundary":" ","building":"yes","craft":" ","geological":" ","historic":" ","land_area":" ","landuse":" ","leisure":" ","man_made":" ","military":" ","natural":" ","office":" ","place":" ","shop":" ","sport":" ","tourism":" ","other_tags":"\"addr:city\"=\u003e\"Spielberg\",\"addr:country\"=\u003e\"AT\",\"addr:housenumber\"=\u003e\"5\",\"addr:postcode\"=\u003e\"8724\",\"addr:street\"=\u003e\"Höhenstraße\",\"at_bev:addr_date\"=\u003e\"2017-10-01\",\"source:address\"=\u003e\"basemap.at\"","Shape_Length":0.00060913714476856101,"Shape_Area":2.1722571042817463e-08}},{"type":"Feature","id":49,"geometry":{"type":"Polygon","coordinates":[[[14.761987400198393,47.228387400058523],[14.76196099970042,47.228298399551534],[14.762149600124019,47.228272599800675],[14.762176100446709,47.228361499583571],[14.761987400198393,47.228387400058523]]]},"properties":{"OBJECTID":49,"osm_id":" ","osm_way_id":"155581843","name":" ","type":" ","aeroway":" ","amenity":" ","admin_leve":" ","barrier":" ","boundary":" ","building":"yes","craft":" ","geological":" ","historic":" ","land_area":" ","landuse":" ","leisure":" ","man_made":" ","military":" ","natural":" ","office":" ","place":" ","shop":" ","sport":" ","tourism":" ","other_tags":"\"addr:city\"=\u003e\"Spielberg\",\"addr:country\"=\u003e\"AT\",\"addr:housenumber\"=\u003e\"1\",\"addr:postcode\"=\u003e\"8724\",\"addr:street\"=\u003e\"Kirchenweg\",\"at_bev:addr_date\"=\u003e\"2019-10-01\"","Shape_Length":0.00056642546047064649,"Shape_Area":1.7464220820231959e-08}},{"type":"Feature","id":50,"geometry":{"type":"Polygon","coordinates":[[[14.762314200340143,47.227819300120643],[14.762291700201843,47.22775749960897],[14.762449599569436,47.227730900360825],[14.762472099707679,47.227792799797953],[14.762314200340143,47.227819300120643]]]},"properties":{"OBJECTID":50,"osm_id":" ","osm_way_id":"155581849","name":" ","type":" ","aeroway":" ","amenity":" ","admin_leve":" ","barrier":" ","boundary":" ","building":"yes","craft":" ","geological":" ","historic":" ","land_area":" ","landuse":" ","leisure":" ","man_made":" ","military":" ","natural":" ","office":" ","place":" ","shop":" ","sport":" ","tourism":" ","other_tags":"\"addr:city\"=\u003e\"Spielberg\",\"addr:country\"=\u003e\"AT\",\"addr:housenumber\"=\u003e\"2\",\"addr:postcode\"=\u003e\"8724\",\"addr:street\"=\u003e\"Kirchenweg\",\"at_bev:addr_date\"=\u003e\"2019-10-01\"","Shape_Length":0.00045186275075466322,"Shape_Area":1.0363445684761136e-08}},{"type":"Feature","id":51,"geometry":{"type":"Polygon","coordinates":[[[14.759056300108227,47.227846299567148],[14.759086199868307,47.227713199904315],[14.759385200166889,47.227744099710492],[14.75935530040681,47.227877200272644],[14.759056300108227,47.227846299567148]]]},"properties":{"OBJECTID":51,"osm_id":" ","osm_way_id":"155581853","name":"Landhotel Schönberghof & Gästehaus Enzinger","type":" ","aeroway":" ","amenity":" ","admin_leve":" ","barrier":" ","boundary":" ","building":"yes","craft":" ","geological":" ","historic":" ","land_area":" ","landuse":" ","leisure":" ","man_made":" ","military":" ","natural":" ","office":" ","place":" ","shop":" ","sport":" ","tourism":"hotel","other_tags":"\"addr:city\"=\u003e\"Spielberg\",\"addr:country\"=\u003e\"AT\",\"addr:housenumber\"=\u003e\"1\",\"addr:postcode\"=\u003e\"8724\",\"addr:street\"=\u003e\"Höhenstraße\",\"at_bev:addr_date\"=\u003e\"2017-10-01\",\"email\"=\u003e\"schoenberghof@projekt-spielberg.com\",\"phone\"=\u003e\"+433577 22630\",\"website\"=\u003e\"https://www.","Shape_Length":0.00087401978644311091,"Shape_Area":4.0720883612524719e-08}},{"type":"Feature","id":52,"geometry":{"type":"Polygon","coordinates":[[[14.768945800208542,47.22865699972084],[14.768788399964762,47.228579999767248],[14.768779500273752,47.228588400334445],[14.768629999674772,47.228515200016545],[14.768745899803491,47.228406099661811],[14.768904100443933,47.22848359963848],[14.768882200153485,47.228504200408565],[14.769030799631764,47.228576999628899],[14.768945800208542,47.22865699972084]]]},"properties":{"OBJECTID":52,"osm_id":" ","osm_way_id":"155581856","name":" ","type":" ","aeroway":" ","amenity":" ","admin_leve":" ","barrier":" ","boundary":" ","building":"yes","craft":" ","geological":" ","historic":" ","land_area":" ","landuse":" ","leisure":" ","man_made":" ","military":" ","natural":" ","office":" ","place":" ","shop":" ","sport":" ","tourism":" ","other_tags":" ","Shape_Length":0.0010015247813768618,"Shape_Area":4.4209081694534358e-08}},{"type":"Feature","id":53,"geometry":{"type":"Polygon","coordinates":[[[14.760778500027811,47.22704080019281],[14.760709899742153,47.226925400087225],[14.761237299961465,47.22678089971879],[14.761305900247123,47.226896399649206],[14.760778500027811,47.22704080019281]]]},"properties":{"OBJECTID":53,"osm_id":" ","osm_way_id":"155581859","name":" ","type":" ","aeroway":" ","amenity":" ","admin_leve":" ","barrier":" ","boundary":" ","building":"yes","craft":" ","geological":" ","historic":" ","land_area":" ","landuse":" ","leisure":" ","man_made":" ","military":" ","natural":" ","office":" ","place":" ","shop":" ","sport":" ","tourism":" ","other_tags":"\"addr:city\"=\u003e\"Spielberg\",\"addr:country\"=\u003e\"AT\",\"addr:housenumber\"=\u003e\"19\",\"addr:postcode\"=\u003e\"8724\",\"addr:street\"=\u003e\"Red Bull Ring Straße\",\"at_bev:addr_date\"=\u003e\"2019-10-01\"","Shape_Length":0.0013622355260139156,"Shape_Area":7.0797707359560873e-08}},{"type":"Feature","id":54,"geometry":{"type":"Polygon","coordinates":[[[14.768630100398866,47.22820439971332],[14.768672200361834,47.228128399805883],[14.768947999950285,47.22819910000851],[14.768905800162599,47.22827500009123],[14.768630100398866,47.22820439971332]]]},"properties":{"OBJECTID":54,"osm_id":" ","osm_way_id":"155581861","name":" ","type":" ","aeroway":" ","amenity":" ","admin_leve":" ","barrier":" ","boundary":" ","building":"yes","craft":" ","geological":" ","historic":" ","land_area":" ","landuse":" ","leisure":" ","man_made":" ","military":" ","natural":" ","office":" ","place":" ","shop":" ","sport":" ","tourism":" ","other_tags":"\"addr:city\"=\u003e\"Spielberg\",\"addr:country\"=\u003e\"AT\",\"addr:housenumber\"=\u003e\"9\",\"addr:postcode\"=\u003e\"8724\",\"addr:street\"=\u003e\"Höhenstraße\",\"at_bev:addr_date\"=\u003e\"2018-10-01\"","Shape_Length":0.00074303722035298585,"Shape_Area":2.3921087468835447e-08}},{"type":"Feature","id":55,"geometry":{"type":"Polygon","coordinates":[[[14.76007909997054,47.228065100124297],[14.760038000053726,47.228250900059038],[14.759875899952874,47.228234400197437],[14.759916999869688,47.228048600262753],[14.76007909997054,47.228065100124297]]]},"properties":{"OBJECTID":55,"osm_id":" ","osm_way_id":"155581862","name":" ","type":" ","aeroway":" ","amenity":" ","admin_leve":" ","barrier":" ","boundary":" ","building":"yes","craft":" ","geological":" ","historic":" ","land_area":" ","landuse":" ","leisure":" ","man_made":" ","military":" ","natural":" ","office":" ","place":" ","shop":" ","sport":" ","tourism":" ","other_tags":" ","Shape_Length":0.00070645817390621948,"Shape_Area":3.079633109318575e-08}},{"type":"Feature","id":56,"geometry":{"type":"Polygon","coordinates":[[[14.773086500141915,47.217933300181699],[14.77299460022067,47.217878400168104],[14.773036999657847,47.217845699919167],[14.772996100289845,47.217821199688672],[14.773088500234167,47.217750000362287],[14.773221300422733,47.217829399707057],[14.773086500141915,47.217933300181699]]]},"properties":{"OBJECTID":56,"osm_id":" ","osm_way_id":"155646863","name":" ","type":" ","aeroway":" ","amenity":" ","admin_leve":" ","barrier":" ","boundary":" ","building":"yes","craft":" ","geological":" ","historic":" ","land_area":" ","landuse":" ","leisure":" ","man_made":" ","military":" ","natural":" ","office":" ","place":" ","shop":" ","sport":" ","tourism":" ","other_tags":"\"addr:city\"=\u003e\"Spielberg\",\"addr:country\"=\u003e\"AT\",\"addr:housenumber\"=\u003e\"27\",\"addr:postcode\"=\u003e\"8724\",\"addr:street\"=\u003e\"Sonnenring\",\"at_bev:addr_date\"=\u003e\"2017-10-01\"","Shape_Length":0.00064984103397347937,"Shape_Area":2.2129201178738941e-08}},{"type":"Feature","id":57,"geometry":{"type":"Polygon","coordinates":[[[14.768217100239042,47.21742220017444],[14.768263800234251,47.217168299977118],[14.768517599707536,47.217189800069264],[14.768488500344063,47.217348200359197],[14.768400599707945,47.217340700013324],[14.768382999975529,47.217436299745486],[14.768217100239042,47.21742220017444]]]},"properties":{"OBJECTID":57,"osm_id":" ","osm_way_id":"155646956","name":" ","type":" ","aeroway":" ","amenity":" ","admin_leve":" ","barrier":" ","boundary":" ","building":"yes","craft":" ","geological":" ","historic":" ","land_area":" ","landuse":" ","leisure":" ","man_made":" ","military":" ","natural":" ","office":" ","place":" ","shop":" ","sport":" ","tourism":" ","other_tags":"\"addr:postcode\"=\u003e\"8724\"","Shape_Length":0.001025842896675543,"Shape_Area":5.6924095955737716e-08}},{"type":"Feature","id":58,"geometry":{"type":"Polygon","coordinates":[[[14.77319170013692,47.218565199824184],[14.773130000349283,47.218484800433259],[14.773302600035038,47.218423699594098],[14.773364299822617,47.218504099884342],[14.77319170013692,47.218565199824184]]]},"properties":{"OBJECTID":58,"osm_id":" ","osm_way_id":"155647004","name":" ","type":" ","aeroway":" ","amenity":" ","admin_leve":" ","barrier":" ","boundary":" ","building":"yes","craft":" ","geological":" ","historic":" ","land_area":" ","landuse":" ","leisure":" ","man_made":" ","military":" ","natural":" ","office":" ","place":" ","shop":" ","sport":" ","tourism":" ","other_tags":"\"addr:city\"=\u003e\"Spielberg\",\"addr:country\"=\u003e\"AT\",\"addr:housenumber\"=\u003e\"64\",\"addr:postcode\"=\u003e\"8724\",\"addr:street\"=\u003e\"Sonnenring\",\"at_bev:addr_date\"=\u003e\"2017-10-01\"","Shape_Length":0.00056888257668830989,"Shape_Area":1.7646868272286205e-08}},{"type":"Feature","id":59,"geometry":{"type":"Polygon","coordinates":[[[14.77287589960315,47.218281200217291],[14.772784700253737,47.218166599608935],[14.77287109992136,47.218134900305472],[14.772855500281139,47.218115400305521],[14.772987699722592,47.218066800042834],[14.773079499819119,47.218181999599665],[14.772983499888653,47.218217299788591],[14.77299849968108,47.218236100115973],[14.77287589960315,47.218281200217291]]]},"properties":{"OBJECTID":59,"osm_id":" ","osm_way_id":"155647032","name":" ","type":" ","aeroway":" ","amenity":" ","admin_leve":" ","barrier":" ","boundary":" ","building":"yes","craft":" ","geological":" ","historic":" ","land_area":" ","landuse":" ","leisure":" ","man_made":" ","military":" ","natural":" ","office":" ","place":" ","shop":" ","sport":" ","tourism":" ","other_tags":"\"addr:city\"=\u003e\"Spielberg\",\"addr:country\"=\u003e\"AT\",\"addr:housenumber\"=\u003e\"66\",\"addr:postcode\"=\u003e\"8724\",\"addr:street\"=\u003e\"Sonnenring\",\"at_bev:addr_date\"=\u003e\"2017-10-01\"","Shape_Length":0.00080858398194823386,"Shape_Area":3.3360207323093748e-08}},{"type":"Feature","id":60,"geometry":{"type":"Polygon","coordinates":[[[14.768854799609358,47.217435799722409],[14.768849599729322,47.217418899662562],[14.768829700430388,47.217354900308464],[14.768947999950285,47.217337900423843],[14.768973199853349,47.217418799837787],[14.768854799609358,47.217435799722409]]]},"properties":{"OBJECTID":60,"osm_id":" ","osm_way_id":"155647086","name":" ","type":" ","aeroway":" ","amenity":" ","admin_leve":" ","barrier":" ","boundary":" ","building":"detached","craft":" ","geological":" ","historic":" ","land_area":" ","landuse":" ","leisure":" ","man_made":" ","military":" ","natural":" ","office":" ","place":" ","shop":" ","sport":" ","tourism":" ","other_tags":"\"addr:city\"=\u003e\"Spielberg\",\"addr:country\"=\u003e\"AT\",\"addr:housenumber\"=\u003e\"4\",\"addr:postcode\"=\u003e\"8724\",\"addr:street\"=\u003e\"Moosheim\",\"at_bev:addr_date\"=\u003e\"2019-10-01\"","Shape_Length":0.0004085661505887875,"Shape_Area":1.0000220195690625e-08}},{"type":"Feature","id":61,"geometry":{"type":"Polygon","coordinates":[[[14.77387019994984,47.218328199686709],[14.773810899553439,47.218240499599403],[14.773873600286493,47.218220899774735],[14.773857899922177,47.218197799788697],[14.773979300304518,47.218159899659668],[14.774054300165858,47.218270699733068],[14.77387019994984,47.218328199686709]]]},"properties":{"OBJECTID":61,"osm_id":" ","osm_way_id":"155647260","name":" ","type":" ","aeroway":" ","amenity":" ","admin_leve":" ","barrier":" ","boundary":" ","building":"yes","craft":" ","geological":" ","historic":" ","land_area":" ","landuse":" ","leisure":" ","man_made":" ","military":" ","natural":" ","office":" ","place":" ","shop":" ","sport":" ","tourism":" ","other_tags":"\"addr:city\"=\u003e\"Spielberg\",\"addr:country\"=\u003e\"AT\",\"addr:housenumber\"=\u003e\"60\",\"addr:postcode\"=\u003e\"8724\",\"addr:street\"=\u003e\"Sonnenring\",\"at_bev:addr_date\"=\u003e\"2017-10-01\"","Shape_Length":0.00065333695740270954,"Shape_Area":2.2952758903156314e-08}},{"type":"Feature","id":62,"geometry":{"type":"Polygon","coordinates":[[[14.773482500417117,47.218424300341269],[14.773433599780844,47.218346199617486],[14.773478699882162,47.218331699848136],[14.773468399946751,47.218316899705201],[14.773544100379979,47.218292400374025],[14.773556699881851,47.218310400304802],[14.773617699996919,47.218290699756039],[14.773668300351801,47.21836270037835],[14.773482500417117,47.218424300341269]]]},"properties":{"OBJECTID":62,"osm_id":" ","osm_way_id":"155647273","name":" ","type":" ","aeroway":" ","amenity":" ","admin_leve":" ","barrier":" ","boundary":" ","building":"yes","craft":" ","geological":" ","historic":" ","land_area":" ","landuse":" ","leisure":" ","man_made":" ","military":" ","natural":" ","office":" ","place":" ","shop":" ","sport":" ","tourism":" ","other_tags":"\"addr:city\"=\u003e\"Spielberg\",\"addr:country\"=\u003e\"AT\",\"addr:housenumber\"=\u003e\"62\",\"addr:postcode\"=\u003e\"8724\",\"addr:street\"=\u003e\"Sonnenring\",\"at_bev:addr_date\"=\u003e\"2017-10-01\"","Shape_Length":0.00060693968713954559,"Shape_Area":1.8280549826764192e-08}},{"type":"Feature","id":63,"geometry":{"type":"Polygon","coordinates":[[[14.774266100400268,47.218226400028414],[14.774201699948549,47.218129300227076],[14.774303999629922,47.218098000222597],[14.774279699948238,47.218061299789213],[14.774407699555752,47.218022100139876],[14.774472199832189,47.218119199941157],[14.77455339961972,47.218094400236453],[14.774594600260627,47.218156600047109],[14.774502099592269,47.21818489991324],[14.774485200431684,47.218159399636647],[14.774266100400268,47.218226400028414]]]},"properties":{"OBJECTID":63,"osm_id":" ","osm_way_id":"155647287","name":" ","type":" ","aeroway":" ","amenity":" ","admin_leve":" ","barrier":" ","boundary":" ","building":"yes","craft":" ","geological":" ","historic":" ","land_area":" ","landuse":" ","leisure":" ","man_made":" ","military":" ","natural":" ","office":" ","place":" ","shop":" ","sport":" ","tourism":" ","other_tags":"\"addr:city\"=\u003e\"Spielberg\",\"addr:country\"=\u003e\"AT\",\"addr:housenumber\"=\u003e\"58\",\"addr:postcode\"=\u003e\"8724\",\"addr:street\"=\u003e\"Sonnenring\",\"at_bev:addr_date\"=\u003e\"2017-10-01\"","Shape_Length":0.0010338999860013754,"Shape_Area":3.8993392880082548e-08}},{"type":"Feature","id":64,"geometry":{"type":"Polygon","coordinates":[[[14.753378999641143,47.218241399820783],[14.753394299807155,47.218213400328239],[14.753434100203606,47.218223399890064],[14.75341880003765,47.218251500106703],[14.753378999641143,47.218241399820783]]]},"properties":{"OBJECTID":64,"osm_id":" ","osm_way_id":"193996964","name":" ","type":" ","aeroway":" ","amenity":" ","admin_leve":" ","barrier":" ","boundary":" ","building":"transformer_tower","craft":" ","geological":" ","historic":" ","land_area":" ","landuse":" ","leisure":" ","man_made":" ","military":" ","natural":" ","office":" ","place":" ","shop":" ","sport":" ","tourism":" ","other_tags":"\"location\"=\u003e\"indoor\",\"power\"=\u003e\"substation\"","Shape_Length":0.00014600206668919844,"Shape_Area":1.2701608373145229e-09}},{"type":"Feature","id":65,"geometry":{"type":"Polygon","coordinates":[[[14.76928689957083,47.228140600008715],[14.769201699598796,47.228104500322502],[14.76923630011521,47.228066899667738],[14.76932140026247,47.228102900428553],[14.76928689957083,47.228140600008715]]]},"properties":{"OBJECTID":65,"osm_id":" ","osm_way_id":"193996971","name":" ","type":" ","aeroway":" ","amenity":" ","admin_leve":" ","barrier":" ","boundary":" ","building":"yes","craft":" ","geological":" ","historic":" ","land_area":" ","landuse":" ","leisure":" ","man_made":" ","military":" ","natural":" ","office":" ","place":" ","shop":" ","sport":" ","tourism":" ","other_tags":" ","Shape_Length":0.00028713544334282067,"Shape_Area":4.4514667454043238e-09}},{"type":"Feature","id":66,"geometry":{"type":"Polygon","coordinates":[[[14.762355499906448,47.228460499652385],[14.762309600307844,47.228379700063158],[14.762393700409007,47.228357699947935],[14.76243960000761,47.228438399712445],[14.762355499906448,47.228460499652385]]]},"properties":{"OBJECTID":66,"osm_id":" ","osm_way_id":"193996976","name":" ","type":" ","aeroway":" ","amenity":" ","admin_leve":" ","barrier":" ","boundary":" ","building":"yes","craft":" ","geological":" ","historic":" ","land_area":" ","landuse":" ","leisure":" ","man_made":" ","military":" ","natural":" ","office":" ","place":" ","shop":" ","sport":" ","tourism":" ","other_tags":"\"addr:city\"=\u003e\"Spielberg\",\"addr:country\"=\u003e\"AT\",\"addr:housenumber\"=\u003e\"5\",\"addr:postcode\"=\u003e\"8724\",\"addr:street\"=\u003e\"Kirchenweg\",\"at_bev:addr_date\"=\u003e\"2019-10-01\"","Shape_Length":0.00035965174843689899,"Shape_Area":7.803143408666788e-09}},{"type":"Feature","id":67,"geometry":{"type":"Polygon","coordinates":[[[14.762564399827227,47.227529499886543],[14.762569300233054,47.227480500324873],[14.762646599660911,47.227484100311017],[14.762641799979122,47.227533099872687],[14.762564399827227,47.227529499886543]]]},"properties":{"OBJECTID":67,"osm_id":" ","osm_way_id":"193996994","name":" ","type":" ","aeroway":" ","amenity":" ","admin_leve":" ","barrier":" ","boundary":" ","building":"yes","craft":" ","geological":" ","historic":" ","land_area":" ","landuse":" ","leisure":" ","man_made":" ","military":" ","natural":" ","office":" ","place":" ","shop":" ","sport":" ","tourism":" ","other_tags":" ","Shape_Length":0.00025334510668025445,"Shape_Area":3.8075658897401363e-09}},{"type":"Feature","id":68,"geometry":{"type":"Polygon","coordinates":[[[14.762021499792411,47.227701300075012],[14.761994199972378,47.227605999817115],[14.762343500252371,47.2275598996697],[14.762349399805032,47.227580799914051],[14.762408499652565,47.227573099918686],[14.762424000367389,47.227627200434995],[14.762364699970988,47.227635000255134],[14.762370499698875,47.227655199927597],[14.762021499792411,47.227701300075012]]]},"properties":{"OBJECTID":68,"osm_id":" ","osm_way_id":"194684176","name":" ","type":" ","aeroway":" ","amenity":"place_of_worship","admin_leve":" ","barrier":" ","boundary":" ","building":"yes","craft":" ","geological":" ","historic":" ","land_area":" ","landuse":" ","leisure":" ","man_made":" ","military":" ","natural":" ","office":" ","place":" ","shop":" ","sport":" ","tourism":" ","other_tags":"\"denomination\"=\u003e\"catholic\",\"religion\"=\u003e\"christian\"","Shape_Length":0.0010219146295638573,"Shape_Area":3.7847082487049246e-08}},{"type":"Feature","id":69,"geometry":{"type":"Polygon","coordinates":[[[14.756940799678205,47.227139400063322],[14.756862199830721,47.227131399694372],[14.756876300301087,47.227067299616238],[14.756954999973345,47.227075299985131],[14.756940799678205,47.227139400063322]]]},"properties":{"OBJECTID":69,"osm_id":" ","osm_way_id":"380480374","name":" ","type":" ","aeroway":" ","amenity":" ","admin_leve":" ","barrier":" ","boundary":" ","building":"yes","craft":" ","geological":" ","historic":" ","land_area":" ","landuse":" ","leisure":" ","man_made":" ","military":" ","natural":" ","office":" ","place":" ","shop":" ","sport":" ","tourism":" ","other_tags":" ","Shape_Length":0.00028939803138485626,"Shape_Area":5.1546640376281136e-09}},{"type":"Feature","id":70,"geometry":{"type":"Polygon","coordinates":[[[14.763616499601824,47.218978000334516],[14.763664099818413,47.218859199892222],[14.763750299836545,47.218875199730746],[14.763738800205488,47.218903600320971],[14.76386750038489,47.218927399979577],[14.763831299974584,47.219017799831647],[14.763616499601824,47.218978000334516]]]},"properties":{"OBJECTID":70,"osm_id":" ","osm_way_id":"380480384","name":" ","type":" ","aeroway":" ","amenity":" ","admin_leve":" ","barrier":" ","boundary":" ","building":"yes","craft":" ","geological":" ","historic":" ","land_area":" ","landuse":" ","leisure":" ","man_made":" ","military":" ","natural":" ","office":" ","place":" ","shop":" ","sport":" ","tourism":" ","other_tags":" ","Shape_Length":0.0006930117855127538,"Shape_Area":2.3482360217495294e-08}},{"type":"Feature","id":71,"geometry":{"type":"Polygon","coordinates":[[[14.75314880017703,47.226483699862911],[14.753120399586805,47.226466500328797],[14.753148700352313,47.226445000236652],[14.75317710004316,47.226462199770765],[14.75314880017703,47.226483699862911]]]},"properties":{"OBJECTID":71,"osm_id":" ","osm_way_id":"380480387","name":" ","type":" ","aeroway":" ","amenity":" ","admin_leve":" ","barrier":" ","boundary":" ","building":"yes","craft":" ","geological":" ","historic":" ","land_area":" ","landuse":" ","leisure":" ","man_made":" ","military":" ","natural":" ","office":" ","place":" ","shop":" ","sport":" ","tourism":" ","other_tags":" ","Shape_Length":0.00013748655311272904,"Shape_Area":1.0973578858249218e-09}},{"type":"Feature","id":72,"geometry":{"type":"Polygon","coordinates":[[[14.760348300333817,47.227657700042869],[14.760279799872933,47.227601399784817],[14.760329199632906,47.227573699766481],[14.760397700093847,47.227630000024533],[14.760348300333817,47.227657700042869]]]},"properties":{"OBJECTID":72,"osm_id":" ","osm_way_id":"380589344","name":" ","type":" ","aeroway":" ","amenity":" ","admin_leve":" ","barrier":" ","boundary":" ","building":"yes","craft":" ","geological":" ","historic":" ","land_area":" ","landuse":" ","leisure":" ","man_made":" ","military":" ","natural":" ","office":" ","place":" ","shop":" ","sport":" ","tourism":" ","other_tags":" ","Shape_Length":0.0002906080404566127,"Shape_Area":4.6786832591028174e-09}},{"type":"Feature","id":73,"geometry":{"type":"Polygon","coordinates":[[[14.758508600391622,47.227705099710647],[14.758448100299631,47.227698700134965],[14.758460099953709,47.227646599710852],[14.758520600045699,47.227653000185853],[14.758508600391622,47.227705099710647]]]},"properties":{"OBJECTID":73,"osm_id":" ","osm_way_id":"380589350","name":" ","type":" ","aeroway":" ","amenity":" ","admin_leve":" ","barrier":" ","boundary":" ","building":"yes","craft":" ","geological":" ","historic":" ","land_area":" ","landuse":" ","leisure":" ","man_made":" ","military":" ","natural":" ","office":" ","place":" ","shop":" ","sport":" ","tourism":" ","other_tags":" ","Shape_Length":0.00022860332469074591,"Shape_Area":3.2288513373397245e-09}},{"type":"Feature","id":74,"geometry":{"type":"Polygon","coordinates":[[[14.758479000105808,47.227782099664239],[14.758418300364326,47.227774000369891],[14.758424600115234,47.227751900429894],[14.758485299856773,47.227759999724242],[14.758479000105808,47.227782099664239]]]},"properties":{"OBJECTID":74,"osm_id":" ","osm_way_id":"380589359","name":" ","type":" ","aeroway":" ","amenity":" ","admin_leve":" ","barrier":" ","boundary":" ","building":"yes","craft":" ","geological":" ","historic":" ","land_area":" ","landuse":" ","leisure":" ","man_made":" ","military":" ","natural":" ","office":" ","place":" ","shop":" ","sport":" ","tourism":" ","other_tags":" ","Shape_Length":0.00016843602195963016,"Shape_Area":1.3924841823731782e-09}},{"type":"Feature","id":75,"geometry":{"type":"Polygon","coordinates":[[[14.763038999949913,47.218202200171447],[14.762972200107015,47.218214199825525],[14.762948100074823,47.218152500037888],[14.763014899917721,47.218140500383811],[14.763038999949913,47.218202200171447]]]},"properties":{"OBJECTID":75,"osm_id":" ","osm_way_id":"380589360","name":" ","type":" ","aeroway":" ","amenity":" ","admin_leve":" ","barrier":" ","boundary":" ","building":"yes","craft":" ","geological":" ","historic":" ","land_area":" ","landuse":" ","leisure":" ","man_made":" ","military":" ","natural":" ","office":" ","place":" ","shop":" ","sport":" ","tourism":" ","other_tags":" ","Shape_Length":0.00026821720085769306,"Shape_Area":4.4107281705136474e-09}},{"type":"Feature","id":76,"geometry":{"type":"Polygon","coordinates":[[[14.761139299938804,47.227837399876137],[14.761115500280141,47.227800499793261],[14.761069599782275,47.227726800351604],[14.761127499934219,47.227710199765966],[14.761196399694143,47.227820999839309],[14.761139299938804,47.227837399876137]]]},"properties":{"OBJECTID":76,"osm_id":" ","osm_way_id":"565072386","name":" ","type":" ","aeroway":" ","amenity":" ","admin_leve":" ","barrier":" ","boundary":" ","building":"yes","craft":" ","geological":" ","historic":" ","land_area":" ","landuse":" ","leisure":" ","man_made":" ","military":" ","natural":" ","office":" ","place":" ","shop":" ","sport":" ","tourism":" ","other_tags":" ","Shape_Length":0.00038085040378323061,"Shape_Area":7.5388488761093434e-09}},{"type":"Feature","id":77,"geometry":{"type":"Polygon","coordinates":[[[14.752601599584182,47.218551299902629],[14.752650400395737,47.21851489984283],[14.752804000104561,47.21860970007765],[14.752755100367665,47.218646100137448],[14.752601599584182,47.218551299902629]]]},"properties":{"OBJECTID":77,"osm_id":" ","osm_way_id":"567142798","name":" ","type":" ","aeroway":" ","amenity":" ","admin_leve":" ","barrier":" ","boundary":" ","building":"garage","craft":" ","geological":" ","historic":" ","land_area":" ","landuse":" ","leisure":" ","man_made":" ","military":" ","natural":" ","office":" ","place":" ","shop":" ","sport":" ","tourism":" ","other_tags":" ","Shape_Length":0.00048275530902021439,"Shape_Area":1.0220255609638762e-08}},{"type":"Feature","id":78,"geometry":{"type":"Polygon","coordinates":[[[14.773884900268001,47.218142600300837],[14.773842300281956,47.218079899567783],[14.773910299820557,47.218058600024449],[14.773952899806545,47.218121299858183],[14.773884900268001,47.218142600300837]]]},"properties":{"OBJECTID":78,"osm_id":" ","osm_way_id":"568520806","name":" ","type":" ","aeroway":" ","amenity":" ","admin_leve":" ","barrier":" ","boundary":" ","building":"yes","craft":" ","geological":" ","historic":" ","land_area":" ","landuse":" ","leisure":" ","man_made":" ","military":" ","natural":" ","office":" ","place":" ","shop":" ","sport":" ","tourism":" ","other_tags":" ","Shape_Length":0.00029412080081106604,"Shape_Area":5.1709697428490831e-09}},{"type":"Feature","id":79,"geometry":{"type":"Polygon","coordinates":[[[14.749595800006205,47.221773300097766],[14.749555700135488,47.221734399922696],[14.749600200389011,47.221712800005776],[14.74964419972008,47.221750700134749],[14.749595800006205,47.221773300097766]]]},"properties":{"OBJECTID":79,"osm_id":" ","osm_way_id":"570593845","name":" ","type":" ","aeroway":" ","amenity":" ","admin_leve":" ","barrier":" ","boundary":" ","building":"shed","craft":" ","geological":" ","historic":" ","land_area":" ","landuse":" ","leisure":" ","man_made":" ","military":" ","natural":" ","office":" ","place":" ","shop":" ","sport":" ","tourism":" ","other_tags":" ","Shape_Length":0.00021682157512644548,"Shape_Area":2.7129800909033268e-09}},{"type":"Feature","id":80,"geometry":{"type":"Polygon","coordinates":[[[14.75026039989757,47.22175180000562],[14.750236200040661,47.22173410044843],[14.750281700340224,47.221705400383996],[14.750305900197191,47.221723199765904],[14.75026039989757,47.22175180000562]]]},"properties":{"OBJECTID":80,"osm_id":" ","osm_way_id":"570593846","name":" ","type":" ","aeroway":" ","amenity":" ","admin_leve":" ","barrier":" ","boundary":" ","building":"yes","craft":" ","geological":" ","historic":" ","land_area":" ","landuse":" ","leisure":" ","man_made":" ","military":" ","natural":" ","office":" ","place":" ","shop":" ","sport":" ","tourism":" ","other_tags":" ","Shape_Length":0.00016756069903238412,"Shape_Area":1.5009357635492003e-09}},{"type":"Feature","id":81,"geometry":{"type":"Polygon","coordinates":[[[14.750779899572763,47.221455199997536],[14.750704399688345,47.221412900385076],[14.750762700038649,47.221364899970183],[14.75083819992301,47.221407199582643],[14.750779899572763,47.221455199997536]]]},"properties":{"OBJECTID":81,"osm_id":" ","osm_way_id":"570593847","name":" ","type":" ","aeroway":" ","amenity":" ","admin_leve":" ","barrier":" ","boundary":" ","building":"yes","craft":" ","geological":" ","historic":" ","land_area":" ","landuse":" ","leisure":" ","man_made":" ","military":" ","natural":" ","office":" ","place":" ","shop":" ","sport":" ","tourism":" ","other_tags":" ","Shape_Length":0.00032411970746947416,"Shape_Area":6.0901079979305827e-09}},{"type":"Feature","id":82,"geometry":{"type":"Polygon","coordinates":[[[14.752755100367665,47.218646100137448],[14.752804000104561,47.21860970007765],[14.752922099974967,47.218642699800796],[14.752844299624769,47.2187010001511],[14.752755100367665,47.218646100137448]]]},"properties":{"OBJECTID":82,"osm_id":" ","osm_way_id":"570593852","name":" ","type":" ","aeroway":" ","amenity":" ","admin_leve":" ","barrier":" ","boundary":" ","building":"garage","craft":" ","geological":" ","historic":" ","land_area":" ","landuse":" ","leisure":" ","man_made":" ","military":" ","natural":" ","office":" ","place":" ","shop":" ","sport":" ","tourism":" ","other_tags":" ","Shape_Length":0.00038554462182226553,"Shape_Area":7.6920541742035183e-09}},{"type":"Feature","id":83,"geometry":{"type":"Polygon","coordinates":[[[14.754162599624351,47.218489600114992],[14.754125099693624,47.218473999575451],[14.754168300426784,47.218424199617175],[14.754210900412772,47.218441400050608],[14.754162599624351,47.218489600114992]]]},"properties":{"OBJECTID":83,"osm_id":" ","osm_way_id":"570593853","name":" ","type":" ","aeroway":" ","amenity":" ","admin_leve":" ","barrier":" ","boundary":" ","building":"yes","craft":" ","geological":" ","historic":" ","land_area":" ","landuse":" ","leisure":" ","man_made":" ","military":" ","natural":" ","office":" ","place":" ","shop":" ","sport":" ","tourism":" ","other_tags":" ","Shape_Length":0.00022072016658195229,"Shape_Area":2.7127831474225172e-09}},{"type":"Feature","id":84,"geometry":{"type":"Polygon","coordinates":[[[14.753583099880188,47.218191599862507],[14.753634700281225,47.21802920028739],[14.754048699587884,47.218089999853646],[14.753997100086167,47.218252299603989],[14.753583099880188,47.218191599862507]]]},"properties":{"OBJECTID":84,"osm_id":" ","osm_way_id":"584182666","name":" ","type":" ","aeroway":" ","amenity":" ","admin_leve":" ","barrier":" ","boundary":" ","building":"shed","craft":" ","geological":" ","historic":" ","land_area":" ","landuse":" ","leisure":" ","man_made":" ","military":" ","natural":" ","office":" ","place":" ","shop":" ","sport":" ","tourism":" ","other_tags":" ","Shape_Length":0.0011775713124139169,"Shape_Area":7.0347399994556261e-08}},{"type":"Feature","id":85,"geometry":{"type":"Polygon","coordinates":[[[14.75237550012929,47.219277800130442],[14.75240770035515,47.219225400232062],[14.752489599815249,47.219248600042931],[14.752457399589389,47.219300999941254],[14.75237550012929,47.219277800130442]]]},"properties":{"OBJECTID":85,"osm_id":" ","osm_way_id":"628467665","name":" ","type":" ","aeroway":" ","amenity":" ","admin_leve":" ","barrier":" ","boundary":" ","building":"shed","craft":" ","geological":" ","historic":" ","land_area":" ","landuse":" ","leisure":" ","man_made":" ","military":" ","natural":" ","office":" ","place":" ","shop":" ","sport":" ","tourism":" ","other_tags":" ","Shape_Length":0.00029324972958833277,"Shape_Area":5.0385625331653848e-09}},{"type":"Feature","id":86,"geometry":{"type":"Polygon","coordinates":[[[14.758470100414854,47.22762430012142],[14.758486600276456,47.227579500393688],[14.758656699846881,47.227608400107613],[14.75864019998528,47.227653199835345],[14.758470100414854,47.22762430012142]]]},"properties":{"OBJECTID":86,"osm_id":" ","osm_way_id":"666697384","name":" ","type":" ","aeroway":" ","amenity":" ","admin_leve":" ","barrier":" ","boundary":" ","building":"yes","craft":" ","geological":" ","historic":" ","land_area":" ","landuse":" ","leisure":" ","man_made":" ","military":" ","natural":" ","office":" ","place":" ","shop":" ","sport":" ","tourism":" ","other_tags":" ","Shape_Length":0.00044055745134310352,"Shape_Area":8.0972557224710662e-09}},{"type":"Feature","id":87,"geometry":{"type":"Polygon","coordinates":[[[14.763274800391798,47.228692299909767],[14.763350099727347,47.228696200269496],[14.763346999764281,47.228723900287832],[14.763271800253449,47.228719999928103],[14.763274800391798,47.228692299909767]]]},"properties":{"OBJECTID":87,"osm_id":" ","osm_way_id":"666949508","name":" ","type":" ","aeroway":" ","amenity":" ","admin_leve":" ","barrier":" ","boundary":" ","building":"yes","craft":" ","geological":" ","historic":" ","land_area":" ","landuse":" ","leisure":" ","man_made":" ","military":" ","natural":" ","office":" ","place":" ","shop":" ","sport":" ","tourism":" ","other_tags":" ","Shape_Length":0.00020643583038944491,"Shape_Area":2.0963066970980829e-09}},{"type":"Feature","id":88,"geometry":{"type":"Polygon","coordinates":[[[14.756956699692012,47.227146199837307],[14.756968800070126,47.227084300400179],[14.757044700152846,47.227091100174164],[14.757032599774732,47.227152999611292],[14.756956699692012,47.227146199837307]]]},"properties":{"OBJECTID":88,"osm_id":" ","osm_way_id":"666949509","name":" ","type":" ","aeroway":" ","amenity":" ","admin_leve":" ","barrier":" ","boundary":" ","building":"yes","craft":" ","geological":" ","historic":" ","land_area":" ","landuse":" ","leisure":" ","man_made":" ","military":" ","natural":" ","office":" ","place":" ","shop":" ","sport":" ","tourism":" ","other_tags":" ","Shape_Length":0.00027855026308341597,"Shape_Area":4.7804522346556969e-09}},{"type":"Feature","id":89,"geometry":{"type":"Polygon","coordinates":[[[14.767209499818591,47.227370899947118],[14.767146499611329,47.227350899924147],[14.767166600358394,47.227321699836637],[14.767229599666337,47.227341799684382],[14.767209499818591,47.227370899947118]]]},"properties":{"OBJECTID":89,"osm_id":" ","osm_way_id":"694547710","name":" ","type":" ","aeroway":" ","amenity":" ","admin_leve":" ","barrier":" ","boundary":" ","building":"yes","craft":" ","geological":" ","historic":" ","land_area":" ","landuse":" ","leisure":" ","man_made":" ","military":" ","natural":" ","office":" ","place":" ","shop":" ","sport":" ","tourism":" ","other_tags":" ","Shape_Length":0.00020304346701609195,"Shape_Area":2.2394636305118286e-09}},{"type":"Feature","id":90,"geometry":{"type":"Polygon","coordinates":[[[14.757063799954437,47.227157700367627],[14.757068499811453,47.227134300008004],[14.757150800369175,47.227142000003369],[14.757146099612839,47.227165400362992],[14.757063799954437,47.227157700367627]]]},"properties":{"OBJECTID":90,"osm_id":" ","osm_way_id":"703209826","name":" ","type":" ","aeroway":" ","amenity":" ","admin_leve":" ","barrier":" ","boundary":" ","building":"yes","craft":" ","geological":" ","historic":" ","land_area":" ","landuse":" ","leisure":" ","man_made":" ","military":" ","natural":" ","office":" ","place":" ","shop":" ","sport":" ","tourism":" ","other_tags":" ","Shape_Length":0.00021305456713464552,"Shape_Area":1.9620444653016884e-09}},{"type":"Feature","id":91,"geometry":{"type":"Polygon","coordinates":[[[14.762191100239136,47.226993899648789],[14.762185799635006,47.226963400040916],[14.762242699740852,47.226958800008674],[14.762248000344982,47.226989299616548],[14.762191100239136,47.226993899648789]]]},"properties":{"OBJECTID":91,"osm_id":" ","osm_way_id":"997690180","name":" ","type":" ","aeroway":" ","amenity":" ","admin_leve":" ","barrier":" ","boundary":" ","building":"yes","craft":" ","geological":" ","historic":" ","land_area":" ","landuse":" ","leisure":" ","man_made":" ","military":" ","natural":" ","office":" ","place":" ","shop":" ","sport":" ","tourism":" ","other_tags":" ","Shape_Length":0.00017608505933715415,"Shape_Area":1.7598138662019599e-09}},{"type":"Feature","id":92,"geometry":{"type":"Polygon","coordinates":[[[14.768849599729322,47.217418899662562],[14.768854799609358,47.217435799722409],[14.768973199853349,47.217418799837787],[14.768989500065402,47.217416500271327],[14.769000899871685,47.217453099980617],[14.768779500273752,47.217484800183456],[14.768762899688113,47.217431300414262],[14.768849599729322,47.217418899662562]]]},"properties":{"OBJECTID":92,"osm_id":" ","osm_way_id":"1194996477","name":" ","type":" ","aeroway":" ","amenity":" ","admin_leve":" ","barrier":" ","boundary":" ","building":"yes","craft":" ","geological":" ","historic":" ","land_area":" ","landuse":" ","leisure":" ","man_made":" ","military":" ","natural":" ","office":" ","place":" ","shop":" ","sport":" ","tourism":" ","other_tags":" ","Shape_Length":0.00055934799772431405,"Shape_Area":9.9940849620103662e-09}}]
}