{
  "type" : "FeatureCollection",
  "features" : [{"type":"Feature","id":1,"geometry":{"type":"Polygon","coordinates":[[[12.697418399739433,50.791610199651075],[12.697534399692813,50.791550900153993],[12.697626099964566,50.791622499678681],[12.697663500070519,50.791603399877033],[12.697719199581456,50.791646999909176],[12.697650299821532,50.791682300098103],[12.697599200342893,50.79164230005216],[12.697514799868145,50.791685499885943],[12.697418399739433,50.791610199651075]]]},"properties":{"OBJECTID":1,"osm_id":" ","osm_way_id":"150195960","name":" ","type":" ","aeroway":" ","amenity":" ","admin_leve":" ","barrier":" ","boundary":" ","building":"yes","craft":" ","geological":" ","historic":" ","land_area":" ","landuse":" ","leisure":" ","man_made":" ","military":" ","natural":" ","office":" ","place":" ","shop":" ","sport":" ","tourism":" ","other_tags":"\"addr:city\"=\u003e\"Oberlungwitz\",\"addr:country\"=\u003e\"DE\",\"addr:housenumber\"=\u003e\"21\",\"addr:postcode\"=\u003e\"09353\",\"addr:street\"=\u003e\"Goldbachstraße\"","Shape_Length":0.00071879707565879506,"Shape_Area":1.9231669555722653e-08}},{"type":"Feature","id":2,"geometry":{"type":"Polygon","coordinates":[[[12.698664899665459,50.792311300326276],[12.698753599798863,50.792405300164546],[12.698642799725462,50.792447099753929],[12.698610800048414,50.792413199809403],[12.698530999606021,50.792443200293519],[12.698474300048986,50.792383100399832],[12.698664899665459,50.792311300326276]]]},"properties":{"OBJECTID":2,"osm_id":" ","osm_way_id":"150199161","name":" ","type":" ","aeroway":" ","amenity":" ","admin_leve":" ","barrier":" ","boundary":" ","building":"yes","craft":" ","geological":" ","historic":" ","land_area":" ","landuse":" ","leisure":" ","man_made":" ","military":" ","natural":" ","office":" ","place":" ","shop":" ","sport":" ","tourism":" ","other_tags":"\"addr:city\"=\u003e\"Oberlungwitz\",\"addr:country\"=\u003e\"DE\",\"addr:housenumber\"=\u003e\"23\",\"addr:postcode\"=\u003e\"09353\",\"addr:street\"=\u003e\"Goldbachstraße\",\"disused:amenity\"=\u003e\"restaurant\",\"disused:name\"=\u003e\"Gasthaus Goldbachschänke\"","Shape_Length":0.00066583551543953126,"Shape_Area":2.0626100443306387e-08}},{"type":"Feature","id":3,"geometry":{"type":"Polygon","coordinates":[[[12.698921299978053,50.793206900078417],[12.69902719964557,50.793144200244683],[12.699133100212464,50.793215699944653],[12.69902719964557,50.793278399778387],[12.698921299978053,50.793206900078417]]]},"properties":{"OBJECTID":3,"osm_id":" ","osm_way_id":"150199162","name":" ","type":" ","aeroway":" ","amenity":" ","admin_leve":" ","barrier":" ","boundary":" ","building":"yes","craft":" ","geological":" ","historic":" ","land_area":" ","landuse":" ","leisure":" ","man_made":" ","military":" ","natural":" ","office":" ","place":" ","shop":" ","sport":" ","tourism":" ","other_tags":"\"addr:city\"=\u003e\"Oberlungwitz\",\"addr:country\"=\u003e\"DE\",\"addr:housenumber\"=\u003e\"25\",\"addr:postcode\"=\u003e\"09353\",\"addr:street\"=\u003e\"Goldbachstraße\"","Shape_Length":0.0005016936450070482,"Shape_Area":1.4211746348174081e-08}},{"type":"Feature","id":4,"geometry":{"type":"Polygon","coordinates":[[[12.699442400446458,50.794172199987088],[12.699512099703668,50.794075600208828],[12.699641799929168,50.79411300031478],[12.699572099772638,50.794209600093041],[12.699442400446458,50.794172199987088]]]},"properties":{"OBJECTID":4,"osm_id":" ","osm_way_id":"209213876","name":" ","type":" ","aeroway":" ","amenity":" ","admin_leve":" ","barrier":" ","boundary":" ","building":"yes","craft":" ","geological":" ","historic":" ","land_area":" ","landuse":" ","leisure":" ","man_made":" ","military":" ","natural":" ","office":" ","place":" ","shop":" ","sport":" ","tourism":" ","other_tags":" ","Shape_Length":0.0005082088174366184,"Shape_Area":1.5135746008352065e-08}},{"type":"Feature","id":5,"geometry":{"type":"Polygon","coordinates":[[[12.698777199807978,50.793256399663164],[12.698716900264799,50.793219799953874],[12.698846499766205,50.793134299608312],[12.698906900033478,50.793170900216921],[12.698777199807978,50.793256399663164]]]},"properties":{"OBJECTID":5,"osm_id":" ","osm_way_id":"209213881","name":" ","type":" ","aeroway":" ","amenity":" ","admin_leve":" ","barrier":" ","boundary":" ","building":"yes","craft":" ","geological":" ","historic":" ","land_area":" ","landuse":" ","leisure":" ","man_made":" ","military":" ","natural":" ","office":" ","place":" ","shop":" ","sport":" ","tourism":" ","other_tags":" ","Shape_Length":0.00045177000271765823,"Shape_Area":9.905116224775051e-09}},{"type":"Feature","id":6,"geometry":{"type":"Polygon","coordinates":[[[12.69724510038111,50.794562500359177],[12.697139400363085,50.794523700008824],[12.697275299615455,50.794375900027831],[12.697380999633481,50.794414700378184],[12.69724510038111,50.794562500359177]]]},"properties":{"OBJECTID":6,"osm_id":" ","osm_way_id":"209323891","name":" ","type":" ","aeroway":" ","amenity":" ","admin_leve":" ","barrier":" ","boundary":" ","building":"yes","craft":" ","geological":" ","historic":" ","land_area":" ","landuse":" ","leisure":" ","man_made":" ","military":" ","natural":" ","office":" ","place":" ","shop":" ","sport":" ","tourism":" ","other_tags":" ","Shape_Length":0.00062675705164182182,"Shape_Area":2.0895399259866096e-08}},{"type":"Feature","id":7,"geometry":{"type":"Polygon","coordinates":[[[12.696437600015258,50.793631399869241],[12.696516799710594,50.793542400261629],[12.696928500350054,50.793688999647657],[12.696849299755456,50.793777900329871],[12.696437600015258,50.793631399869241]]]},"properties":{"OBJECTID":7,"osm_id":" ","osm_way_id":"209323893","name":" ","type":" ","aeroway":" ","amenity":" ","admin_leve":" ","barrier":" ","boundary":" ","building":"yes","craft":" ","geological":" ","historic":" ","land_area":" ","landuse":" ","leisure":" ","man_made":" ","military":" ","natural":" ","office":" ","place":" ","shop":" ","sport":" ","tourism":" ","other_tags":" ","Shape_Length":0.0011122111297181879,"Shape_Area":4.8227566718862642e-08}},{"type":"Feature","id":8,"geometry":{"type":"Polygon","coordinates":[[[12.69810649981514,50.794583999552003],[12.698192000160702,50.794494599746031],[12.698439800256608,50.79458939998085],[12.698354299911045,50.794678699962105],[12.69810649981514,50.794583999552003]]]},"properties":{"OBJECTID":8,"osm_id":" ","osm_way_id":"209323895","name":" ","type":" ","aeroway":" ","amenity":" ","admin_leve":" ","barrier":" ","boundary":" ","building":"yes","craft":" ","geological":" ","historic":" ","land_area":" ","landuse":" ","leisure":" ","man_made":" ","military":" ","natural":" ","office":" ","place":" ","shop":" ","sport":" ","tourism":" ","other_tags":" ","Shape_Length":0.00077792956809009408,"Shape_Area":3.0242097519216011e-08}},{"type":"Feature","id":9,"geometry":{"type":"Polygon","coordinates":[[[12.696607499936249,50.794293399820617],[12.696338699771218,50.794197300065377],[12.696596500328269,50.79390920044932],[12.696865299593924,50.794005300204503],[12.696607499936249,50.794293399820617]]]},"properties":{"OBJECTID":9,"osm_id":" ","osm_way_id":"209323897","name":" ","type":" ","aeroway":" ","amenity":" ","admin_leve":" ","barrier":" ","boundary":" ","building":"yes","craft":" ","geological":" ","historic":" ","land_area":" ","landuse":" ","leisure":" ","man_made":" ","military":" ","natural":" ","office":" ","place":" ","shop":" ","sport":" ","tourism":" ","other_tags":"\"addr:city\"=\u003e\"Oberlungwitz\",\"addr:country\"=\u003e\"DE\",\"addr:housenumber\"=\u003e\"21a\",\"addr:postcode\"=\u003e\"09353\",\"addr:street\"=\u003e\"Goldbachstraße\"","Shape_Length":0.0013441306837317826,"Shape_Area":1.0221562200522275e-07}},{"type":"Feature","id":10,"geometry":{"type":"Polygon","coordinates":[[[12.697552899646666,50.794844200399609],[12.697720699650631,50.794660200008252],[12.698348299634347,50.794888900302567],[12.698180399805665,50.795072899794548],[12.697552899646666,50.794844200399609]]]},"properties":{"OBJECTID":10,"osm_id":" ","osm_way_id":"209323899","name":" ","type":" ","aeroway":" ","amenity":" ","admin_leve":" ","barrier":" ","boundary":" ","building":"yes","craft":" ","geological":" ","historic":" ","land_area":" ","landuse":" ","leisure":" ","man_made":" ","military":" ","natural":" ","office":" ","place":" ","shop":" ","sport":" ","tourism":" ","other_tags":"\"addr:city\"=\u003e\"Oberlungwitz\",\"addr:country\"=\u003e\"DE\",\"addr:housenumber\"=\u003e\"27\",\"addr:postcode\"=\u003e\"09353\",\"addr:street\"=\u003e\"Goldbachstraße\"","Shape_Length":0.0018339631046702149,"Shape_Area":1.5385642630771458e-07}},{"type":"Feature","id":11,"geometry":{"type":"Polygon","coordinates":[[[12.698496200339434,50.794496800387094],[12.697628799729387,50.794177200217689],[12.697815900083754,50.793974299674232],[12.698683299794482,50.794293899843638],[12.698496200339434,50.794496800387094]]]},"properties":{"OBJECTID":11,"osm_id":" ","osm_way_id":"209323900","name":" ","type":" ","aeroway":" ","amenity":" ","admin_leve":" ","barrier":" ","boundary":" ","building":"yes","craft":" ","geological":" ","historic":" ","land_area":" ","landuse":" ","leisure":" ","man_made":" ","military":" ","natural":" ","office":" ","place":" ","shop":" ","sport":" ","tourism":" ","other_tags":" ","Shape_Length":0.0024008093179676547,"Shape_Area":2.3579312517702044e-07}},{"type":"Feature","id":12,"geometry":{"type":"Polygon","coordinates":[[[12.696841300285826,50.794252999576315],[12.697017199584138,50.794064700425622],[12.69715769976807,50.794117200148719],[12.696981799570437,50.794305400373958],[12.696841300285826,50.794252999576315]]]},"properties":{"OBJECTID":12,"osm_id":" ","osm_way_id":"209323902","name":" ","type":" ","aeroway":" ","amenity":" ","admin_leve":" ","barrier":" ","boundary":" ","building":"yes","craft":" ","geological":" ","historic":" ","land_area":" ","landuse":" ","leisure":" ","man_made":" ","military":" ","natural":" ","office":" ","place":" ","shop":" ","sport":" ","tourism":" ","other_tags":" ","Shape_Length":0.00081522253244852429,"Shape_Area":3.5675018716067366e-08}},{"type":"Feature","id":13,"geometry":{"type":"Polygon","coordinates":[[[12.696349599554424,50.793579599818713],[12.695959899929505,50.793438099588684],[12.696022999961542,50.793368599980965],[12.69641269958646,50.793510100210995],[12.696349599554424,50.793579599818713]]]},"properties":{"OBJECTID":13,"osm_id":" ","osm_way_id":"209323903","name":" ","type":" ","aeroway":" ","amenity":" ","admin_leve":" ","barrier":" ","boundary":" ","building":"yes","craft":" ","geological":" ","historic":" ","land_area":" ","landuse":" ","leisure":" ","man_made":" ","military":" ","natural":" ","office":" ","place":" ","shop":" ","sport":" ","tourism":" ","other_tags":" ","Shape_Length":0.0010169303042020087,"Shape_Area":3.6012640107962486e-08}},{"type":"Feature","id":14,"geometry":{"type":"Polygon","coordinates":[[[12.685909799797457,50.785457600288055],[12.685780300120825,50.785328400085632],[12.686525999974947,50.785029600335861],[12.686655499651636,50.785158799638964],[12.685909799797457,50.785457600288055]]]},"properties":{"OBJECTID":14,"osm_id":" ","osm_way_id":"209551753","name":" ","type":" ","aeroway":" ","amenity":" ","admin_leve":" ","barrier":" ","boundary":" ","building":"yes","craft":" ","geological":" ","historic":" ","land_area":" ","landuse":" ","leisure":" ","man_made":" ","military":" ","natural":" ","office":" ","place":" ","shop":" ","sport":" ","tourism":" ","other_tags":" ","Shape_Length":0.0019725298602721372,"Shape_Area":1.350387660039738e-07}},{"type":"Feature","id":15,"geometry":{"type":"Polygon","coordinates":[[[12.686273800395611,50.785693399830564],[12.686071800073591,50.785534700066421],[12.686870399849113,50.785128200206316],[12.687072400171189,50.785286800145741],[12.686273800395611,50.785693399830564]]]},"properties":{"OBJECTID":15,"osm_id":" ","osm_way_id":"209551759","name":" ","type":" ","aeroway":" ","amenity":" ","admin_leve":" ","barrier":" ","boundary":" ","building":"yes","craft":" ","geological":" ","historic":" ","land_area":" ","landuse":" ","leisure":" ","man_made":" ","military":" ","natural":" ","office":" ","place":" ","shop":" ","sport":" ","tourism":" ","other_tags":" ","Shape_Length":0.0023059625311095699,"Shape_Area":2.088209209918013e-07}},{"type":"Feature","id":16,"geometry":{"type":"Polygon","coordinates":[[[12.685164299592827,50.785879199765304],[12.685611699720198,50.785646199812334],[12.685785699650353,50.785779699673469],[12.685438699836197,50.785960500276929],[12.68547130026036,50.785985499631181],[12.685370899947145,50.786037799704729],[12.685164299592827,50.785879199765304]]]},"properties":{"OBJECTID":16,"osm_id":" ","osm_way_id":"209551767","name":" ","type":" ","aeroway":" ","amenity":" ","admin_leve":" ","barrier":" ","boundary":" ","building":"yes","craft":" ","geological":" ","historic":" ","land_area":" ","landuse":" ","leisure":" ","man_made":" ","military":" ","natural":" ","office":" ","place":" ","shop":" ","sport":" ","tourism":" ","other_tags":" ","Shape_Length":0.0015297707829724874,"Shape_Area":1.0451545874078447e-07}},{"type":"Feature","id":17,"geometry":{"type":"Polygon","coordinates":[[[12.687688999647662,50.784962799593586],[12.687613399938527,50.784888500304078],[12.687758799628966,50.784829399557225],[12.68774169991957,50.784812600221358],[12.687871800343373,50.784759700299958],[12.68796439993713,50.784850799824596],[12.687688999647662,50.784962799593586]]]},"properties":{"OBJECTID":17,"osm_id":" ","osm_way_id":"209551771","name":" ","type":" ","aeroway":" ","amenity":" ","admin_leve":" ","barrier":" ","boundary":" ","building":"yes","craft":" ","geological":" ","historic":" ","land_area":" ","landuse":" ","leisure":" ","man_made":" ","military":" ","natural":" ","office":" ","place":" ","shop":" ","sport":" ","tourism":" ","other_tags":"\"addr:city\"=\u003e\"Bernsdorf\",\"addr:housenumber\"=\u003e\"1\",\"addr:postcode\"=\u003e\"09337\",\"addr:street\"=\u003e\"Waldenburger Straße\"","Shape_Length":0.00085456845996364638,"Shape_Area":3.2015264043351183e-08}},{"type":"Feature","id":18,"geometry":{"type":"Polygon","coordinates":[[[12.6969375996905,50.791832500369651],[12.696298199702198,50.792230300188237],[12.69618500023762,50.792157599893358],[12.696824500050695,50.791759800074772],[12.6969375996905,50.791832500369651]]]},"properties":{"OBJECTID":18,"osm_id":" ","osm_way_id":"999334348","name":" ","type":" ","aeroway":" ","amenity":" ","admin_leve":" ","barrier":" ","boundary":" ","building":"yes","craft":" ","geological":" ","historic":" ","land_area":" ","landuse":" ","leisure":" ","man_made":" ","military":" ","natural":" ","office":" ","place":" ","shop":" ","sport":" ","tourism":" ","other_tags":" ","Shape_Length":0.0017751595400325266,"Shape_Area":9.1499067675566767e-08}}]
}