{
  "type" : "FeatureCollection",
  "features" : [{"type":"Feature","id":1,"geometry":{"type":"Polygon","coordinates":[[[8.565281899939805,49.329979499854062],[8.5670434002327625,49.330818099675639],[8.5674027998993552,49.330989399840973],[8.5673298001302101,49.331030800131373],[8.5664258996355898,49.331837500100619],[8.5660705999782749,49.331591299898605],[8.5658319001221344,49.331391199844063],[8.5655898997541158,49.331171400140079],[8.5655046997821387,49.331093999988184],[8.5651874999032316,49.330853700238151],[8.5651079000096502,49.33075649971272],[8.5649879996964842,49.33058049969037],[8.5648872000842857,49.330532299625986],[8.5646539995824469,49.330100699687591],[8.564747100098657,49.329853100140497],[8.565281899939805,49.329979499854062]]]},"properties":{"OBJECTID":1,"osm_id":" ","osm_way_id":"339969333","name":"Fahrerlager 1","type":" ","aeroway":" ","amenity":"parking","admin_leve":" ","barrier":" ","boundary":" ","building":" ","craft":" ","geological":" ","historic":" ","land_area":" ","landuse":" ","leisure":" ","man_made":" ","military":" ","natural":" ","office":" ","place":" ","shop":" ","sport":" ","tourism":" ","other_tags":"\"access\"=\u003e\"private\",\"parking\"=\u003e\"surface\"","Shape_Length":0.0069831863598052981,"Shape_Area":2.3443912066009093e-06}},{"type":"Feature","id":2,"geometry":{"type":"Polygon","coordinates":[[[8.5656617996523892,49.32990729958226],[8.56549339980063,49.329850799674716],[8.5654024001007087,49.329820499716334],[8.5651986002352487,49.32975729985958],[8.5652301997139944,49.329716399592201],[8.5651550002031627,49.329692599933594],[8.5663117001249134,49.328159000437552],[8.5665842001008059,49.328246400151272],[8.566656400372608,49.328265099754617],[8.5667433000633082,49.328292799772953],[8.5668573997492672,49.32832990040464],[8.5664604003272871,49.328852400218125],[8.5661822004482246,49.329215899893939],[8.5656617996523892,49.32990729958226]]]},"properties":{"OBJECTID":2,"osm_id":" ","osm_way_id":"339969334","name":"Fahrerlager 2","type":" ","aeroway":" ","amenity":"parking","admin_leve":" ","barrier":" ","boundary":" ","building":" ","craft":" ","geological":" ","historic":" ","land_area":" ","landuse":" ","leisure":" ","man_made":" ","military":" ","natural":" ","office":" ","place":" ","shop":" ","sport":" ","tourism":" ","other_tags":"\"access\"=\u003e\"private\",\"parking\"=\u003e\"surface\"","Shape_Length":0.0050896371623500823,"Shape_Area":1.0520516485423893e-06}},{"type":"Feature","id":3,"geometry":{"type":"Polygon","coordinates":[[[8.5670729996193131,49.33074500008172],[8.5661075000611504,49.330285299926686],[8.5663427995805819,49.330076599655399],[8.5665872002391552,49.330196099770262],[8.5668228999568896,49.329991100209156],[8.5666284998054607,49.329897700218737],[8.5669285999749718,49.329488200220339],[8.5671455002647008,49.329560699966407],[8.5673021001118741,49.329598799744872],[8.5675191002263205,49.329629599726275],[8.5677285999949504,49.329646800159765],[8.5679399002062837,49.329654199781544],[8.5680204003212452,49.329656100049021],[8.5680848996984196,49.329672300436357],[8.5681201998873462,49.329701499624548],[8.567743499962603,49.330023500084508],[8.5675154004154592,49.330218599908505],[8.5674454997101179,49.330184199940902],[8.5671379000940533,49.330459100207349],[8.5673110996276023,49.330539899796577],[8.5670729996193131,49.33074500008172]]]},"properties":{"OBJECTID":3,"osm_id":" ","osm_way_id":"340016151","name":"Fahrerlager 3","type":" ","aeroway":" ","amenity":"parking","admin_leve":" ","barrier":" ","boundary":" ","building":" ","craft":" ","geological":" ","historic":" ","land_area":" ","landuse":" ","leisure":" ","man_made":" ","military":" ","natural":" ","office":" ","place":" ","shop":" ","sport":" ","tourism":" ","other_tags":"\"access\"=\u003e\"private\",\"parking\"=\u003e\"surface\"","Shape_Length":0.0057067179266243528,"Shape_Area":1.0988331111418959e-06}}]
}